City,Name,Nosah,Address,Latitude,Longitude,Navigate
אבן יהודה,בית מנחם-חב´´ד,חבד,"המיסדים  41
",32.2692212,34.89067910000001,https://www.waze.com/live-map/directions?navigate=yes&to=ll.32.2692212%2C34.89067910000001
אבן יהודה,ותיקים,אחיד,"המעפילים  12
",32.2608949,34.8883995,https://www.waze.com/live-map/directions?navigate=yes&to=ll.32.2608949%2C34.8883995
אונו קרית אונו,צעירי ישראל,אשכנז,"שלמה המלך 28
",32.0544774,34.8611589,https://www.waze.com/live-map/directions?navigate=yes&to=ll.32.0544774%2C34.8611589
אופקים,חבד,חבד,"מישור הגפן התמר  2
",31.311245,34.610359,https://www.waze.com/live-map/directions?navigate=yes&to=ll.31.311245%2C34.610359
אופקים,עש הריף,,"יגאל אלון 9
",31.313031,34.623266,https://www.waze.com/live-map/directions?navigate=yes&to=ll.31.313031%2C34.623266
אור יהודה,אהבת חיים,ירושלמי,"ז´ בוטיסקי 19
",32.0279815,34.8637712,https://www.waze.com/live-map/directions?navigate=yes&to=ll.32.0279815%2C34.8637712
אורנית ישוב,היכל משה,אחיד,"הזית 67
",32.1364682,34.9893197,https://www.waze.com/live-map/directions?navigate=yes&to=ll.32.1364682%2C34.9893197
אזור,בית חבד,חבד,"יצחק שדה 2
",32.025505,34.808183,https://www.waze.com/live-map/directions?navigate=yes&to=ll.32.025505%2C34.808183
אזור,עץ חיים,ירושלמי,"יצחק    שדה 9
",32.024446,34.810116,https://www.waze.com/live-map/directions?navigate=yes&to=ll.32.024446%2C34.810116
אילת,בית חבד,חבד," רודד 6
",29.5619544,34.9487125,https://www.waze.com/live-map/directions?navigate=yes&to=ll.29.5619544%2C34.9487125
אילת,הישיבה התיכונית,לפי החזן,"איצטדיון 24
",29.5633041,34.9406279,https://www.waze.com/live-map/directions?navigate=yes&to=ll.29.5633041%2C34.9406279
אילת,חבד שחמון,חבד,"נחל זרחן 6
",29.5436388,34.9344643,https://www.waze.com/live-map/directions?navigate=yes&to=ll.29.5436388%2C34.9344643
אילת,ישיבת איילת השחר,לפי החזן,"ששת הימים 180
",29.5587523,34.9394981,https://www.waze.com/live-map/directions?navigate=yes&to=ll.29.5587523%2C34.9394981
אילת,מאור החיים,ירושלמי,"שדרות התמרים 55
",29.5646884,34.9504041,https://www.waze.com/live-map/directions?navigate=yes&to=ll.29.5646884%2C34.9504041
אילת,מלון ישרוטל המלך שלמה,לפי החזן,"דרך החוף הצפוני  8000
",29.551181,34.965207,https://www.waze.com/live-map/directions?navigate=yes&to=ll.29.551181%2C34.965207
אלעד, חניכי הישיבות קהילת חפץ חיים,אשכנז,"חוני המעגל 9
",32.0537329,34.9464634,https://www.waze.com/live-map/directions?navigate=yes&to=ll.32.0537329%2C34.9464634
אלעד,אור לציון,ירושלמי,"חוני המעגל 1
",32.0527902,34.9454943,https://www.waze.com/live-map/directions?navigate=yes&to=ll.32.0527902%2C34.9454943
אלעד,בית יוסף,ירושלמי,"שמעון הצדיק 21
",32.0469779,34.9634149,https://www.waze.com/live-map/directions?navigate=yes&to=ll.32.0469779%2C34.9634149
אלעד,בית מאיר,ירושלמי,"שמעון הצדיק 18
",32.0471489,34.96214,https://www.waze.com/live-map/directions?navigate=yes&to=ll.32.0471489%2C34.96214
אלעד,בית מנחם חבד ליובאוויטש,חבד,"אבטליון 11
",32.047281,34.9492579,https://www.waze.com/live-map/directions?navigate=yes&to=ll.32.047281%2C34.9492579
אלעד,ברסלב-שאירת ישראל,חסידי,"הראש  1
",32.04953,34.95075,https://www.waze.com/live-map/directions?navigate=yes&to=ll.32.04953%2C34.95075
אלעד,ויז´ניץ,חסידי,"יוסף קארו 5
",32.048749,34.9642672,https://www.waze.com/live-map/directions?navigate=yes&to=ll.32.048749%2C34.9642672
אלעד,זכור לאברהם,לפי החזן,"רבי יהודה הנשיא 9
",32.0524677,34.94692879999999,https://www.waze.com/live-map/directions?navigate=yes&to=ll.32.0524677%2C34.94692879999999
אלעד,חניכי הישיבות חפץ חיים,אשכנז,"חוני המעגל  9
",32.0537329,34.9464634,https://www.waze.com/live-map/directions?navigate=yes&to=ll.32.0537329%2C34.9464634
אלקנה,בית חבד אוהל לאה אלקנה,חבד,"מרכז מסחרי
",32.110566,35.032054,https://www.waze.com/live-map/directions?navigate=yes&to=ll.32.110566%2C35.032054
אפרת,אהל שמעון ואסתר,ירושלמי,"נצח ירושלים 4
",31.659872,35.1527883,https://www.waze.com/live-map/directions?navigate=yes&to=ll.31.659872%2C35.1527883
אפרת,אשמורת אברהם,לפי החזן,"המלך דוד  64
",31.6650752,35.1596425,https://www.waze.com/live-map/directions?navigate=yes&to=ll.31.6650752%2C35.1596425
אפרת,ברכה ושלום,לפי החזן,"שאלתיאל 24
",31.665095,35.156009,https://www.waze.com/live-map/directions?navigate=yes&to=ll.31.665095%2C35.156009
אפרת,זמר הזית,לפי החזן,"זית שמן  1
",31.6688725,35.1636668,https://www.waze.com/live-map/directions?navigate=yes&to=ll.31.6688725%2C35.1636668
אפרת,מגן אברהם,לפי החזן,"תמר 2
",31.653589,35.149934,https://www.waze.com/live-map/directions?navigate=yes&to=ll.31.653589%2C35.149934
אריאל,אוהל אפרים,,"הנחשונים 37
",32.1058824,35.1725285,https://www.waze.com/live-map/directions?navigate=yes&to=ll.32.1058824%2C35.1725285
אריאל,אורות אריאל - ימי חול,לפי החזן,"אילות 21
",32.1038328,35.182135,https://www.waze.com/live-map/directions?navigate=yes&to=ll.32.1038328%2C35.182135
אריאל,מוריה,לפי החזן,"עיר יונה 10
",32.104637,35.17451399999999,https://www.waze.com/live-map/directions?navigate=yes&to=ll.32.104637%2C35.17451399999999
אריאל,שבות אריאל,לפי החזן,"צהל 30
",32.1068536,35.1873964,https://www.waze.com/live-map/directions?navigate=yes&to=ll.32.1068536%2C35.1873964
אשקלון,בית הכנסת המרכזי אפרידר,אשכנז,"זונאבנדר 2
",31.6774414,34.5668057,https://www.waze.com/live-map/directions?navigate=yes&to=ll.31.6774414%2C34.5668057
באר יעקב,חזון איש מנין עמוס,ירושלמי,"חזון איש 8
",31.944382,34.839214,https://www.waze.com/live-map/directions?navigate=yes&to=ll.31.944382%2C34.839214
באר שבע,אוהל שרה,,"צביה ויצחק  46
",31.2240044,34.7803366,https://www.waze.com/live-map/directions?navigate=yes&to=ll.31.2240044%2C34.7803366
באר שבע,אהבה ואחוה,ירושלמי,"כיכר הקינזי 3
",31.2612497,34.795946,https://www.waze.com/live-map/directions?navigate=yes&to=ll.31.2612497%2C34.795946
באר שבע,אוהל יעקב ליוצאי קווקז,,"אבנר בן נר 6
",31.9512433,34.9315856,https://www.waze.com/live-map/directions?navigate=yes&to=ll.31.9512433%2C34.9315856
באר שבע,אוהל רחל,אשכנז,"אילה 5
",31.252973,34.791462,https://www.waze.com/live-map/directions?navigate=yes&to=ll.31.252973%2C34.791462
באר שבע,באר הגאולה,חבד,"גויטיין 9
",31.2694286,34.7761723,https://www.waze.com/live-map/directions?navigate=yes&to=ll.31.2694286%2C34.7761723
בית אל,כולל מבקשי השם,לפי החזן,"חלמיש 2
",31.94159999999999,35.222734,https://www.waze.com/live-map/directions?navigate=yes&to=ll.31.94159999999999%2C35.222734
בית אל,משכן בית-אל,לפי החזן,"התאנה 7
",31.94159999999999,35.222734,https://www.waze.com/live-map/directions?navigate=yes&to=ll.31.94159999999999%2C35.222734
בית חנניה,בית הכנסת מושב בית חנניה,לפי החזן,"חלמיש 1
",32.5296839,34.9259754,https://www.waze.com/live-map/directions?navigate=yes&to=ll.32.5296839%2C34.9259754
בית שמש,אהבת יהונתן־אז ישיר,אשכנז,"נחל לכיש 3
",31.7150442,34.9938905,https://www.waze.com/live-map/directions?navigate=yes&to=ll.31.7150442%2C34.9938905
בית שמש,אהבת ציון,אשכנז,"נחל תמנה 2
",31.7144547,34.9986675,https://www.waze.com/live-map/directions?navigate=yes&to=ll.31.7144547%2C34.9986675
בית שמש,אהבת שלום,אשכנז,"נחל לכיש 33
",31.7135553,34.9941618,https://www.waze.com/live-map/directions?navigate=yes&to=ll.31.7135553%2C34.9941618
בית שמש,אור שלום,,"נחל מאור 27
",31.708258,34.999529,https://www.waze.com/live-map/directions?navigate=yes&to=ll.31.708258%2C34.999529
בית שמש,בית הכנסת המרכזי,לפי החזן,"מטע 6
",31.747041,34.988099,https://www.waze.com/live-map/directions?navigate=yes&to=ll.31.747041%2C34.988099
בית שמש,בית מדרש תורני לאומי,אשכנז,"אשר 1
",31.738525,34.9901052,https://www.waze.com/live-map/directions?navigate=yes&to=ll.31.738525%2C34.9901052
בית שמש,בית מנחם חבד גבעת שרת,חבד,"הרקפת 8
",31.7382494,34.9811049,https://www.waze.com/live-map/directions?navigate=yes&to=ll.31.7382494%2C34.9811049
ביתר עלית,אוהל תורה,אשכנז,"ר´ יוסף קארו  4
",31.7010023,35.1119254,https://www.waze.com/live-map/directions?navigate=yes&to=ll.31.7010023%2C35.1119254
ביתר עלית,אמשינוב,חסידי,"דרכי איש 21
",31.6977091,35.1024644,https://www.waze.com/live-map/directions?navigate=yes&to=ll.31.6977091%2C35.1024644
ביתר עלית,החידא,ירושלמי,"ברסלב  3
",31.7010023,35.1119254,https://www.waze.com/live-map/directions?navigate=yes&to=ll.31.7010023%2C35.1119254
ביתר עלית,ויזניץ,חסידי,"קדושת לוי 36
",31.7057004,35.1159125,https://www.waze.com/live-map/directions?navigate=yes&to=ll.31.7057004%2C35.1159125
ביתר עלית,טוב דעת,אשכנז,"פנים מאירים 13
",31.70387779999999,35.1146761,https://www.waze.com/live-map/directions?navigate=yes&to=ll.31.70387779999999%2C35.1146761
ביתר עלית,עטרת הנחל,,"קעניג 7
",31.6928247,35.1081087,https://www.waze.com/live-map/directions?navigate=yes&to=ll.31.6928247%2C35.1081087
ביתר עלית,צאנז,חסידי,"פנים מאירים 4
",31.7050784,35.1163701,https://www.waze.com/live-map/directions?navigate=yes&to=ll.31.7050784%2C35.1163701
ביתר עלית,תפארת אברהם אלימלך,אחיד,"חתם סופר 10 10
",31.6958135,35.1210717,https://www.waze.com/live-map/directions?navigate=yes&to=ll.31.6958135%2C35.1210717
בני ברק,אשכנז,אשכנז,"יעל 3
",32.0779457,34.8315003,https://www.waze.com/live-map/directions?navigate=yes&to=ll.32.0779457%2C34.8315003
בני ברק,אברהם,חבד,"אליעזר  2
",32.0758877,34.8358002,https://www.waze.com/live-map/directions?navigate=yes&to=ll.32.0758877%2C34.8358002
בני ברק,אהל משה ורחל,אשכנז,"פרל 19
",32.0908287,34.8282083,https://www.waze.com/live-map/directions?navigate=yes&to=ll.32.0908287%2C34.8282083
בני ברק,אוהל דוד,אחיד,"גוטמאכר 5
",32.0883318,34.8415498,https://www.waze.com/live-map/directions?navigate=yes&to=ll.32.0883318%2C34.8415498
בני ברק,אוהל יעקב ולאה,אשכנז,"הרב פרדו  2
",32.0854823,34.8448053,https://www.waze.com/live-map/directions?navigate=yes&to=ll.32.0854823%2C34.8448053
בני ברק,אור ברוך,ירושלמי,"בן פתחיה  28
",32.090039,34.8293943,https://www.waze.com/live-map/directions?navigate=yes&to=ll.32.090039%2C34.8293943
בני ברק,איצקוביץ,לפי החזן,"הרב שך  4
",32.0859689,34.8356619,https://www.waze.com/live-map/directions?navigate=yes&to=ll.32.0859689%2C34.8356619
בנימינה,תפארת בנימין,אשכנז,"קרן היסוד 2
",32.520716,34.9498119,https://www.waze.com/live-map/directions?navigate=yes&to=ll.32.520716%2C34.9498119
בת ים,צדיקי מרוקו ,לפי החזן,"גבעתי 6
",32.0152585,34.7470984,https://www.waze.com/live-map/directions?navigate=yes&to=ll.32.0152585%2C34.7470984
בת ים,אהבה ואחווה,ירושלמי,"ניצנה  16
",32.023948,34.7589303,https://www.waze.com/live-map/directions?navigate=yes&to=ll.32.023948%2C34.7589303
בת ים,אור הגאולה,אשכנז,"רח העבודה 27 27
",32.0072463,34.7620684,https://www.waze.com/live-map/directions?navigate=yes&to=ll.32.0072463%2C34.7620684
בת ים,אחדות בני ישראל,,"ירושלים 42
",32.0258099,34.7491127,https://www.waze.com/live-map/directions?navigate=yes&to=ll.32.0258099%2C34.7491127
בת ים,באבוב,חסידי,"האדמור מבאבוב 12
",32.0092771,34.7521439,https://www.waze.com/live-map/directions?navigate=yes&to=ll.32.0092771%2C34.7521439
בת ים,בית עובדיה,ירושלמי,"יוספטל 78
",32.016093,34.7505535,https://www.waze.com/live-map/directions?navigate=yes&to=ll.32.016093%2C34.7505535
גבעת זאב,בית הכנסת משכן יוסף,לפי החזן,"מצפה  9
",31.8569027,35.1674727,https://www.waze.com/live-map/directions?navigate=yes&to=ll.31.8569027%2C35.1674727
גבעת זאב,מורשת מנחם-חבד,חבד,"מיצפה  9
",31.8569027,35.1674727,https://www.waze.com/live-map/directions?navigate=yes&to=ll.31.8569027%2C35.1674727
גבעת זאב,מורשת מנחם-חבד,חבד,"מיצפה  9
",31.8569027,35.1674727,https://www.waze.com/live-map/directions?navigate=yes&to=ll.31.8569027%2C35.1674727
גבעת זאב,מניין צעירי חבד,חבד,"התאנה  4
",31.8642984,35.1653481,https://www.waze.com/live-map/directions?navigate=yes&to=ll.31.8642984%2C35.1653481
גבעת שמואל,קהל חסידים,חסידי,"סמטת מגדל המים 1
",32.0795846,34.85243579999999,https://www.waze.com/live-map/directions?navigate=yes&to=ll.32.0795846%2C34.85243579999999
גבעת שמואל,בית אל,ירושלמי,"הנשיא 12
",32.081516,34.849798,https://www.waze.com/live-map/directions?navigate=yes&to=ll.32.081516%2C34.849798
גבעת שמואל,בית מתיתיהו-אור יעקב,אשכנז,"נימרובר 2
",32.077299,34.849206,https://www.waze.com/live-map/directions?navigate=yes&to=ll.32.077299%2C34.849206
גבעת שמואל,בנין סימטרון,לפי החזן,"גוש עציון 11
",32.0799151,34.8456503,https://www.waze.com/live-map/directions?navigate=yes&to=ll.32.0799151%2C34.8456503
גבעת שמואל,חפץ חיים,אשכנז,"ביאליק 36
",32.0771905,34.8508189,https://www.waze.com/live-map/directions?navigate=yes&to=ll.32.0771905%2C34.8508189
גבעתים,אוהל משה,אשכנז,"גורדון 6
",32.0758233,34.8071086,https://www.waze.com/live-map/directions?navigate=yes&to=ll.32.0758233%2C34.8071086
גבעתים,אוהל ש״מ- אשכנזי,אשכנז,"פועלי הרכבת 4
",32.0790934,34.8173848,https://www.waze.com/live-map/directions?navigate=yes&to=ll.32.0790934%2C34.8173848
גבעתים,אמוני מרדכי,אשכנז,"צהל 7
",32.0722831,34.8100205,https://www.waze.com/live-map/directions?navigate=yes&to=ll.32.0722831%2C34.8100205
גבעתים,בית -אל,,"ישראל טייבר 57
",32.0718526,34.8073293,https://www.waze.com/live-map/directions?navigate=yes&to=ll.32.0718526%2C34.8073293
גבעתים,בית שטפנשט,אחיד,"רמב´´ם  1
",32.0711411,34.8022313,https://www.waze.com/live-map/directions?navigate=yes&to=ll.32.0711411%2C34.8022313
גבעתים,הפניקס,לפי החזן,"דרך השלום  53
",32.066902,34.803277,https://www.waze.com/live-map/directions?navigate=yes&to=ll.32.066902%2C34.803277
גבעתים,זכרון קדושים,,"סמטת קיבוץ גלויות  8
",32.0612525,34.81275979999999,https://www.waze.com/live-map/directions?navigate=yes&to=ll.32.0612525%2C34.81275979999999
גדרה,בית הכנסת הקהילתי גדרה הצעירה,אשכנז,"מנחם בגין 51
",31.8071299,34.7846518,https://www.waze.com/live-map/directions?navigate=yes&to=ll.31.8071299%2C34.7846518
גדרה,חבד,חבד,"יסמין 24
",31.8087568,34.78601099999999,https://www.waze.com/live-map/directions?navigate=yes&to=ll.31.8087568%2C34.78601099999999
גדרה,ישורון,אשכנז,"בילויים  24
",31.81522009999999,34.7736149,https://www.waze.com/live-map/directions?navigate=yes&to=ll.31.81522009999999%2C34.7736149
גני תקוה,בית חבד,חבד,"הרי יהודה   33
",32.0610862,34.8730632,https://www.waze.com/live-map/directions?navigate=yes&to=ll.32.0610862%2C34.8730632
גשר הזיו,סולם יעקב,אחיד,"במקלט ליד המועדון 1
",33.040532,35.110563,https://www.waze.com/live-map/directions?navigate=yes&to=ll.33.040532%2C35.110563
גת רמון,בית הכנסת המרכזי גת רימון,לפי החזן,"האילנות 30
",32.0685839,34.8817423,https://www.waze.com/live-map/directions?navigate=yes&to=ll.32.0685839%2C34.8817423
דימונה,בית יהושע,אשכנז,"יגאל אלון פינת בבא סאלי 110
",31.0613185,35.0355134,https://www.waze.com/live-map/directions?navigate=yes&to=ll.31.0613185%2C35.0355134
הוד השרון,אריאל,לפי החזן,"מבצע קדש 2
",32.1553282,34.9157049,https://www.waze.com/live-map/directions?navigate=yes&to=ll.32.1553282%2C34.9157049
הוד השרון,בית כנסת בניין מיקרוסמי - קומה 1,לפי החזן," החרש 29
",32.1313227,34.8940477,https://www.waze.com/live-map/directions?navigate=yes&to=ll.32.1313227%2C34.8940477
הוד השרון,הדר,אשכנז," דרך כפר הדר 40
",32.15185110000001,34.8879168,https://www.waze.com/live-map/directions?navigate=yes&to=ll.32.15185110000001%2C34.8879168
הרצליה,אגודת אחים,אשכנז,"עצמאות 78
",32.1648301,34.8475858,https://www.waze.com/live-map/directions?navigate=yes&to=ll.32.1648301%2C34.8475858
הרצליה,אהבת ישראל,לפי החזן,"ברחוב וינגייט 90
",32.17437,34.8036251,https://www.waze.com/live-map/directions?navigate=yes&to=ll.32.17437%2C34.8036251
הרצליה,אור החיים,לפי החזן,"הר סיני 34
",32.1733969,34.8559206,https://www.waze.com/live-map/directions?navigate=yes&to=ll.32.1733969%2C34.8559206
הרצליה,אחדות,אשכנז,"הכוזרי 3
",32.1642951,34.8477136,https://www.waze.com/live-map/directions?navigate=yes&to=ll.32.1642951%2C34.8477136
הרצליה,ביזנס פארק,לפי החזן,"משכית 8
",32.1665615,34.8115137,https://www.waze.com/live-map/directions?navigate=yes&to=ll.32.1665615%2C34.8115137
הרצליה,בית הכנסת הגדול,אשכנז,"סוקולוב 30
",32.1673228,34.8429965,https://www.waze.com/live-map/directions?navigate=yes&to=ll.32.1673228%2C34.8429965
הרצליה,בית חבד אזור התעשיה,חבד,"משכית 22
",32.1638207,34.8105285,https://www.waze.com/live-map/directions?navigate=yes&to=ll.32.1638207%2C34.8105285
הרצליה,בית יוליאנה,אשכנז,"בית אבות
",32.162686,34.83069800000001,https://www.waze.com/live-map/directions?navigate=yes&to=ll.32.162686%2C34.83069800000001
זכרון יעקב,אוהל יעקב,אשכנז,"הנדיב  19
",32.5741964,34.9541824,https://www.waze.com/live-map/directions?navigate=yes&to=ll.32.5741964%2C34.9541824
זכרון יעקב,חב´´ד,חבד,"אליהו חכים 3
",32.5656632,34.9576529,https://www.waze.com/live-map/directions?navigate=yes&to=ll.32.5656632%2C34.9576529
זכרון יעקב,מועד,אשכנז,"המייסדים 100
",32.5774531,34.9532071,https://www.waze.com/live-map/directions?navigate=yes&to=ll.32.5774531%2C34.9532071
זכרון יעקב,רשבי,ירושלמי,"שבי ציון  1
",32.561095,34.964232,https://www.waze.com/live-map/directions?navigate=yes&to=ll.32.561095%2C34.964232
חדרה,בית אל,,"השרון 10
",32.4414,34.885379,https://www.waze.com/live-map/directions?navigate=yes&to=ll.32.4414%2C34.885379
חדרה,בית חבד חדרה,חבד,"הגיבורים 68
",32.4362118,34.9230524,https://www.waze.com/live-map/directions?navigate=yes&to=ll.32.4362118%2C34.9230524
חדרה,בית חבד לדוברי צרפתית,חבד,"הגיבורים 68
",32.4362118,34.9230524,https://www.waze.com/live-map/directions?navigate=yes&to=ll.32.4362118%2C34.9230524
חדרה,בית כנסת חבד - כולל חבד,חבד,"הנשיא 31
",32.4398388,34.9202306,https://www.waze.com/live-map/directions?navigate=yes&to=ll.32.4398388%2C34.9202306
חדרה,בית כנסת חבד המרכזי,חבד,"הגיבורים 68
",32.4362118,34.9230524,https://www.waze.com/live-map/directions?navigate=yes&to=ll.32.4362118%2C34.9230524
חדרה,הגדול, נחליאל,תימן שאמי,32.4340458,34.9196518,https://www.waze.com/live-map/directions?navigate=yes&to=ll.32.4340458%2C34.9196518
חדרה,חבד וילג',חבד,"שכטמן 10 (קניון מול החוף
",32.4417243,34.8950613,https://www.waze.com/live-map/directions?navigate=yes&to=ll.32.4417243%2C34.8950613
חיפה,אהבת תורה- ויזניץ,חסידי,"מיכאל 1
",32.8063585,35.0009816,https://www.waze.com/live-map/directions?navigate=yes&to=ll.32.8063585%2C35.0009816
חיפה,אוהל אברהם,אשכנז,"בית אל 22
",32.814953,34.975849,https://www.waze.com/live-map/directions?navigate=yes&to=ll.32.814953%2C34.975849
חיפה,אור הכרמל,ירושלמי,"שער הלבנון  4
",32.8058399,34.9882419,https://www.waze.com/live-map/directions?navigate=yes&to=ll.32.8058399%2C34.9882419
חיפה,בית הכנסת כרמל המערבי,אחיד,"אילנות 18
",32.8092384,34.973821,https://www.waze.com/live-map/directions?navigate=yes&to=ll.32.8092384%2C34.973821
טבריה,בית כנסת חבד המרכזי,חבד,"רשי 7
",32.7941836,35.5297637,https://www.waze.com/live-map/directions?navigate=yes&to=ll.32.7941836%2C35.5297637
טבריה,העתיק,חבד,"הבנים 1
",32.7876803,35.5403712,https://www.waze.com/live-map/directions?navigate=yes&to=ll.32.7876803%2C35.5403712
טירת הכרמל,חבד,חבד,"אליאס 18
",32.760485,34.973598,https://www.waze.com/live-map/directions?navigate=yes&to=ll.32.760485%2C34.973598
טירת הכרמל,מנחה בלבד בבניין האדום של ג'נרל אלקטריק,לפי החזן,"יוזמה 1 בבניין האדום של ג'נרל אלקטריק
",32.762127,34.97298,https://www.waze.com/live-map/directions?navigate=yes&to=ll.32.762127%2C34.97298
טירת הכרמל,מניין עובדים- במשרד א.ב אדריכלים,לפי החזן,"האתגר 3
",32.7725873,34.9667061,https://www.waze.com/live-map/directions?navigate=yes&to=ll.32.7725873%2C34.9667061
טירת הכרמל,מעיין חיים,ירושלמי,"ז´בוטינסקי 2
",32.7601302,34.9724461,https://www.waze.com/live-map/directions?navigate=yes&to=ll.32.7601302%2C34.9724461
יבנה,אור ציון ובית שמשון,ירושלמי,"סביון  2
",31.8739733,34.7484427,https://www.waze.com/live-map/directions?navigate=yes&to=ll.31.8739733%2C34.7484427
יבניאל,היכל הקודש חסידי ברסלב,אחיד,"רבי נחמן מברסלב 1
",32.708765,35.503778,https://www.waze.com/live-map/directions?navigate=yes&to=ll.32.708765%2C35.503778
יד בנימין,פעמוני זהב ,לפי החזן,"רחוב האשל 18מתחם דור-אלון
",31.798728,34.823317,https://www.waze.com/live-map/directions?navigate=yes&to=ll.31.798728%2C34.823317
יהוד,בית הכנסת של כולם,חבד,"דרך החורש 4
",32.0331334,34.8788025,https://www.waze.com/live-map/directions?navigate=yes&to=ll.32.0331334%2C34.8788025
יסוד המעלה,משיח גן ישראל ,חבד,"הוורדים 2
",33.0559819,35.6096506,https://www.waze.com/live-map/directions?navigate=yes&to=ll.33.0559819%2C35.6096506
יפו,בית ישראל,אשכנז,"הבעל שם טוב 4
",32.0647667,34.8212388,https://www.waze.com/live-map/directions?navigate=yes&to=ll.32.0647667%2C34.8212388
יפו,ישיבת מה יפו פעמייך,אחיד,"טולוז  16
",32.0390384,34.7478582,https://www.waze.com/live-map/directions?navigate=yes&to=ll.32.0390384%2C34.7478582
יקנעם עילית,אחוות אחים,ירושלמי,"המיצר 1
",32.6432741,35.0881934,https://www.waze.com/live-map/directions?navigate=yes&to=ll.32.6432741%2C35.0881934
ירוחם,ישיבת אמית בלבב שלם,לפי החזן,"אליהו הנביא 1
",30.9876883,34.926885,https://www.waze.com/live-map/directions?navigate=yes&to=ll.30.9876883%2C34.926885
ירוחם,ישיבת ההסדר,אחיד,"אליהו הנביא  1
",30.9876883,34.926885,https://www.waze.com/live-map/directions?navigate=yes&to=ll.30.9876883%2C34.926885
ירוחם,קהילה חרדית,אשכנז,"בכולל 1
",30.987804,34.929741,https://www.waze.com/live-map/directions?navigate=yes&to=ll.30.987804%2C34.929741
ירושלים, אבוא ביתך,ירושלמי,"זאב חקלאי 4
",31.7723443,35.1845399,https://www.waze.com/live-map/directions?navigate=yes&to=ll.31.7723443%2C35.1845399
ירושלים,אשר,ירושלמי,"יהודה {פינת  פיר קניק  44
",31.7505686,35.2134577,https://www.waze.com/live-map/directions?navigate=yes&to=ll.31.7505686%2C35.2134577
ירושלים,יד-אביישראל הצעיר,אשכנז,"בורוכוב קרית היובל 63
",31.7620526,35.1744614,https://www.waze.com/live-map/directions?navigate=yes&to=ll.31.7620526%2C35.1744614
ירושלים,אגודת אחים,,"זולטי 6
",31.768319,35.21371,https://www.waze.com/live-map/directions?navigate=yes&to=ll.31.768319%2C35.21371
ירושלים,אדמון ספרא,ירושלמי,"שמואל יפה 6
",31.8221303,35.2525972,https://www.waze.com/live-map/directions?navigate=yes&to=ll.31.8221303%2C35.2525972
ירושלים,אדרת אליהו,אשכנז,"התאנה 1
",31.732675,35.1899069,https://www.waze.com/live-map/directions?navigate=yes&to=ll.31.732675%2C35.1899069
ירושלים,אדרת אליהו,אשכנז,"התאנה 1
",31.732675,35.1899069,https://www.waze.com/live-map/directions?navigate=yes&to=ll.31.732675%2C35.1899069
ירושלים,אהבת ישראל,חבד,"כפר עציון 8
",31.7475365,35.2235743,https://www.waze.com/live-map/directions?navigate=yes&to=ll.31.7475365%2C35.2235743
ירושלים,אהבת ישראל,,"מעבר המתלה 5
",31.8003876,35.2240435,https://www.waze.com/live-map/directions?navigate=yes&to=ll.31.8003876%2C35.2240435
ירושלים,אהל אבות,ירושלמי,"אריה אלטמן פסגת זאב מרכז 1
",31.828498,35.24539,https://www.waze.com/live-map/directions?navigate=yes&to=ll.31.828498%2C35.24539
כוכב השחר,שירת יונדב,לפי החזן,"מעוז-אסתר 2
",31.960264,35.349421,https://www.waze.com/live-map/directions?navigate=yes&to=ll.31.960264%2C35.349421
כוכב יעקב,ישיבת ההסדר היכל אליהו,לפי החזן,"תורה מציון 1
",31.8801249,35.241728,https://www.waze.com/live-map/directions?navigate=yes&to=ll.31.8801249%2C35.241728
כוכב יעקב,תומר דבורה,חסידי," חסדי אבות 60
",31.878303,35.245561,https://www.waze.com/live-map/directions?navigate=yes&to=ll.31.878303%2C35.245561
כפר יונה,ג´אנח ובניו,לפי החזן,"הקבלן  3
",32.317719,34.933615,https://www.waze.com/live-map/directions?navigate=yes&to=ll.32.317719%2C34.933615
כפר סבא,אוהב צדק,ירושלמי,"ויצמן 204
",32.1715468,34.9230715,https://www.waze.com/live-map/directions?navigate=yes&to=ll.32.1715468%2C34.9230715
כפר סבא,המניין החדש,אשכנז,"י´ כהן 4
",32.1857867,34.9040733,https://www.waze.com/live-map/directions?navigate=yes&to=ll.32.1857867%2C34.9040733
כפר שמריהו,היכל הבנים,אשכנז,"דרך הגנים  38
",32.1848859,34.8194674,https://www.waze.com/live-map/directions?navigate=yes&to=ll.32.1848859%2C34.8194674
כפר תפוח,חבד,חבד,"הדר 264
",32.117973,35.249829,https://www.waze.com/live-map/directions?navigate=yes&to=ll.32.117973%2C35.249829
כרמיאל,אהבת חינם,אחיד,"בציר  39
",32.91405410000001,35.2776313,https://www.waze.com/live-map/directions?navigate=yes&to=ll.32.91405410000001%2C35.2776313
כרמיאל,בית הכרם,אשכנז,"שיזף 4
",32.9072867,35.2961394,https://www.waze.com/live-map/directions?navigate=yes&to=ll.32.9072867%2C35.2961394
כרמיאל,ישיבת ההסדר כרמיאל,לפי החזן,"בירנית 1
",32.909238,35.294256,https://www.waze.com/live-map/directions?navigate=yes&to=ll.32.909238%2C35.294256
כרמיאל,מאור גליל,אשכנז,"נתיב הלוטוס 3
",32.9092095,35.301717,https://www.waze.com/live-map/directions?navigate=yes&to=ll.32.9092095%2C35.301717
כרמיאל,מתן נחליאל,אחיד,"חטיבת הראל 34
",32.9036608,35.2850342,https://www.waze.com/live-map/directions?navigate=yes&to=ll.32.9036608%2C35.2850342
לוד,אלון (בנק לאומי),לפי החזן,"יודפת 1ב
",31.9614557,34.9002346,https://www.waze.com/live-map/directions?navigate=yes&to=ll.31.9614557%2C34.9002346
לוד,דתי לאומי נוה נוף,אשכנז,"חיים משה שפירא 1
",31.9462588,34.8984103,https://www.waze.com/live-map/directions?navigate=yes&to=ll.31.9462588%2C34.8984103
מבשרת ציון,בית הכנסת המרכזי עין חמד,ירושלמי,"המור 1
",31.79699,35.1390242,https://www.waze.com/live-map/directions?navigate=yes&to=ll.31.79699%2C35.1390242
מבשרת ציון,בית הכנסת חבד מבשרת ציון,חבד,"הרקפת 9 מבשרת ציון
",31.80196149999999,35.1595843,https://www.waze.com/live-map/directions?navigate=yes&to=ll.31.80196149999999%2C35.1595843
מבשרת ציון,חבד קסטל,חבד,"החוצבים 4 קומה ב´
",31.7957037,35.1428701,https://www.waze.com/live-map/directions?navigate=yes&to=ll.31.7957037%2C35.1428701
מבשרת ציון,מורשת הראה,אשכנז,"ברוש 70
",31.8019973,35.1591255,https://www.waze.com/live-map/directions?navigate=yes&to=ll.31.8019973%2C35.1591255
מגדל העמק,חבד,חבד,"מירון 3
",32.6742094,35.2427448,https://www.waze.com/live-map/directions?navigate=yes&to=ll.32.6742094%2C35.2427448
מגדל העמק,חבד נוף העמק,חבד,"נוף העמק 4
",32.6737831,35.2519523,https://www.waze.com/live-map/directions?navigate=yes&to=ll.32.6737831%2C35.2519523
מגדל העמק,חבד - ליובאוויטש - אור מנחם,חבד,"הגפן 26
",32.6751723,35.2328532,https://www.waze.com/live-map/directions?navigate=yes&to=ll.32.6751723%2C35.2328532
מגדל העמק,יד הרב עש הרב רפאל בוסקילה זצל,,"חטיבת גולני 20
",32.6746235,35.24500740000001,https://www.waze.com/live-map/directions?navigate=yes&to=ll.32.6746235%2C35.24500740000001
מודיעין,אשכנז בוכמן,אשכנז,"אפרים  13
",31.8840341,35.0086473,https://www.waze.com/live-map/directions?navigate=yes&to=ll.31.8840341%2C35.0086473
מודיעין,בית חבד,חבד,"עמק איילון 21
",31.9029253,35.0136528,https://www.waze.com/live-map/directions?navigate=yes&to=ll.31.9029253%2C35.0136528
מודיעין,ברקן,ירושלמי,"חרצית 28
",31.9059743,35.0113466,https://www.waze.com/live-map/directions?navigate=yes&to=ll.31.9059743%2C35.0113466
מודיעין עילית,אהל מנחם,אשכנז,"נודע ביהודה  41
",31.935222,35.0428668,https://www.waze.com/live-map/directions?navigate=yes&to=ll.31.935222%2C35.0428668
מודיעין עילית,אחדות ישראל,ירושלמי,"אבני נזר 55
",31.9310263,35.0395505,https://www.waze.com/live-map/directions?navigate=yes&to=ll.31.9310263%2C35.0395505
מודיעין עילית,הגרא,,"ישועת דוד 14
",31.9227562,35.0478951,https://www.waze.com/live-map/directions?navigate=yes&to=ll.31.9227562%2C35.0478951
מודיעין עילית,היכל יצחק,אשכנז,"חפץ חיים 10
",31.9328497,35.0452007,https://www.waze.com/live-map/directions?navigate=yes&to=ll.31.9328497%2C35.0452007
מודיעין עילית,חניכי הישיבות הרב ברזל,אשכנז,"אור החיים  27
",31.931556,35.041564,https://www.waze.com/live-map/directions?navigate=yes&to=ll.31.931556%2C35.041564
מודיעין עילית,יוצאי חברון,אשכנז,"שדי חמד 13
",31.9340134,35.043035,https://www.waze.com/live-map/directions?navigate=yes&to=ll.31.9340134%2C35.043035
מודיעין עילית,יחל ישראל,אשכנז,"נתיבות המשפט 2
",31.9334927,35.0471764,https://www.waze.com/live-map/directions?navigate=yes&to=ll.31.9334927%2C35.0471764
מודיעין עילית,מאה שערים,לפי החזן,"מסילת יוסף  31
",31.926859,35.0426428,https://www.waze.com/live-map/directions?navigate=yes&to=ll.31.926859%2C35.0426428
מודיעין עילית,קהילת עדת יראים-אושטרייך,אשכנז,"נתיבות המשפט 111
",31.9291886,35.038561,https://www.waze.com/live-map/directions?navigate=yes&to=ll.31.9291886%2C35.038561
מודיעין עילית,קהילת קצות החושן,אשכנז,"קצות החושן 11
",31.92747169999999,35.0410701,https://www.waze.com/live-map/directions?navigate=yes&to=ll.31.92747169999999%2C35.0410701
מודיעין עילית,קול יעקב,ירושלמי,"נתיבות המשפט  7
",31.9330763,35.0478655,https://www.waze.com/live-map/directions?navigate=yes&to=ll.31.9330763%2C35.0478655
מודיעין עילית,שיר ושבחה,אשכנז,"הסבא מסלובדקא 4
",31.932477,35.042265,https://www.waze.com/live-map/directions?navigate=yes&to=ll.31.932477%2C35.042265
מודיעין עילית,תורה ותפילה,אשכנז,"רבי יהודה הנשיא 19
",31.9395351,35.0417595,https://www.waze.com/live-map/directions?navigate=yes&to=ll.31.9395351%2C35.0417595
מודיעין עילית,תפארת בורדוגו,ירושלמי,"רב ושמואל 9
",31.94062259999999,35.0377928,https://www.waze.com/live-map/directions?navigate=yes&to=ll.31.94062259999999%2C35.0377928
מזכרת בתיה,בית המדרש,,"שקולניק 17
",31.849276,34.844862,https://www.waze.com/live-map/directions?navigate=yes&to=ll.31.849276%2C34.844862
מזכרת בתיה,בית כנסת כללי - חבד,חבד,"נתיב השיירות 46
",31.852101,34.8398018,https://www.waze.com/live-map/directions?navigate=yes&to=ll.31.852101%2C34.8398018
מזכרת בתיה,יחד שבטי ישראל,לפי החזן,"שקולניק 13
",31.8492429,34.8442948,https://www.waze.com/live-map/directions?navigate=yes&to=ll.31.8492429%2C34.8442948
מיתר,אחדות ישראל ,לפי החזן,"צאלים 1
",31.3324493,34.9454654,https://www.waze.com/live-map/directions?navigate=yes&to=ll.31.3324493%2C34.9454654
מיתר,המרכזי,אחיד,"בשמת פינת צקלג 33
",31.3221919,34.9428393,https://www.waze.com/live-map/directions?navigate=yes&to=ll.31.3221919%2C34.9428393
מעלה אדומים,אור התורה,ירושלמי,"הנחלים  54
",31.7777813,35.2981275,https://www.waze.com/live-map/directions?navigate=yes&to=ll.31.7777813%2C35.2981275
מעלה אדומים,דקל וילנאי,,"דרך מדבר יהודה 13
",31.7749886,35.2950891,https://www.waze.com/live-map/directions?navigate=yes&to=ll.31.7749886%2C35.2950891
מעלה אדומים,הגילגל,אחיד,"הגילגל 18
",31.7965721,35.3027686,https://www.waze.com/live-map/directions?navigate=yes&to=ll.31.7965721%2C35.3027686
מעלה אדומים,היכל אביעד-עמודי השישה,ירושלמי,"התוף 36
",31.77841,35.2941044,https://www.waze.com/live-map/directions?navigate=yes&to=ll.31.77841%2C35.2941044
מעלות תרשיחא,בני יוסף,ירושלמי,"סיגליות 36
",33.0129149,35.2878919,https://www.waze.com/live-map/directions?navigate=yes&to=ll.33.0129149%2C35.2878919
מעלות תרשיחא,מאור ישראל,לפי החזן,"ירושלים  41
",33.021584,35.2876471,https://www.waze.com/live-map/directions?navigate=yes&to=ll.33.021584%2C35.2876471
מעלות תרשיחא,מניין אשכנזי שכונת הסביונים,אשכנז,"ספיר
",33.0248738,35.2771811,https://www.waze.com/live-map/directions?navigate=yes&to=ll.33.0248738%2C35.2771811
מצפה יריחו,ישא ברכה,לפי החזן,"ישא ברכה 1
",31.815688,35.395409,https://www.waze.com/live-map/directions?navigate=yes&to=ll.31.815688%2C35.395409
מצפה רמון,אהל שלום - התימנים,לפי החזן,"עין עקב 8
",30.610848,34.8004708,https://www.waze.com/live-map/directions?navigate=yes&to=ll.30.610848%2C34.8004708
מצפה רמון,עץ חיים,לפי החזן,"0528541248
",30.610203,34.801898,https://www.waze.com/live-map/directions?navigate=yes&to=ll.30.610203%2C34.801898
מצפה רמון,צמח דוד,לפי החזן,"עין עופרים 18
",30.61212949999999,34.797841,https://www.waze.com/live-map/directions?navigate=yes&to=ll.30.61212949999999%2C34.797841
נהריה,בית חבד,חבד,"רחוב יחיעם פינת דרך העצמאות
",33.0077504,35.0998914,https://www.waze.com/live-map/directions?navigate=yes&to=ll.33.0077504%2C35.0998914
נהריה,בנק איגוד,לפי החזן,"הגעתון 26
",33.006706,35.0947658,https://www.waze.com/live-map/directions?navigate=yes&to=ll.33.006706%2C35.0947658
נוה דניאל,בית מדרש דרך האבות,לפי החזן,"רחוב דרך האבות 21
",31.6791069,35.1415277,https://www.waze.com/live-map/directions?navigate=yes&to=ll.31.6791069%2C35.1415277
נס ציונה,חבד - אור אברהם,חבד,"ביאליק  2
",31.9281927,34.7989038,https://www.waze.com/live-map/directions?navigate=yes&to=ll.31.9281927%2C34.7989038
נס ציונה,לב המושבה,ירושלמי,"שמיד  1
",31.9280416,34.811012,https://www.waze.com/live-map/directions?navigate=yes&to=ll.31.9280416%2C34.811012
נס ציונה,משכן משה,,"החושן 16
",31.9217218,34.8084959,https://www.waze.com/live-map/directions?navigate=yes&to=ll.31.9217218%2C34.8084959
נס ציונה,ניצן,אחיד,"שדרות אפריים  4
",31.9300867,34.806053,https://www.waze.com/live-map/directions?navigate=yes&to=ll.31.9300867%2C34.806053
נצרת עילית,מקום תורה,אשכנז,"הגבעה  3
",32.7062263,35.31883240000001,https://www.waze.com/live-map/directions?navigate=yes&to=ll.32.7062263%2C35.31883240000001
נצרת עילית,אור הצפון,אשכנז,"החצב 3
",32.6917614,35.3153713,https://www.waze.com/live-map/directions?navigate=yes&to=ll.32.6917614%2C35.3153713
נצרת עילית,בית יוסף חבד,חבד,"יודפת 82
",32.70834,35.320031,https://www.waze.com/live-map/directions?navigate=yes&to=ll.32.70834%2C35.320031
נצרת עילית,בני הישיבות אהל יעקב,אשכנז,"הרב פנחס מילר 4
",32.7289722,35.3423857,https://www.waze.com/live-map/directions?navigate=yes&to=ll.32.7289722%2C35.3423857
נצרת עילית,המרכזי - הגדול,חבד,"הגבעה 3
",32.7062263,35.31883240000001,https://www.waze.com/live-map/directions?navigate=yes&to=ll.32.7062263%2C35.31883240000001
נצרת עילית,הר יונה ג,אשכנז,"הרב עובדיה יוסף  1
",32.7300272,35.3430657,https://www.waze.com/live-map/directions?navigate=yes&to=ll.32.7300272%2C35.3430657
נצרת עילית,חבד מיוחד,חבד,"יזרעאל 41
",32.6885794,35.3133146,https://www.waze.com/live-map/directions?navigate=yes&to=ll.32.6885794%2C35.3133146
נצרת עילית,ישיבת ההסדר נצרת עילית,לפי החזן,"כרמל 25
",32.7051867,35.3168299,https://www.waze.com/live-map/directions?navigate=yes&to=ll.32.7051867%2C35.3168299
נצרת עילית,ישיבת חבד,חבד,"המלאכה 17
",32.7000184,35.3148025,https://www.waze.com/live-map/directions?navigate=yes&to=ll.32.7000184%2C35.3148025
נשר,המרכזי בן-דור,אשכנז,"המתמיד 5
",32.7753079,35.0337652,https://www.waze.com/live-map/directions?navigate=yes&to=ll.32.7753079%2C35.0337652
נשר,התאנה,לפי החזן,"התאנה 5
",32.7671873,35.0161388,https://www.waze.com/live-map/directions?navigate=yes&to=ll.32.7671873%2C35.0161388
נשר,תהילה לדוד,לפי החזן,"רחוב עמוס 26 נשר
",32.7752642,35.03091879999999,https://www.waze.com/live-map/directions?navigate=yes&to=ll.32.7752642%2C35.03091879999999
נתיבות,ישיבת ההסדר-אהבת ישראל,לפי החזן,"הרמבם 1
",31.4233911,34.5921372,https://www.waze.com/live-map/directions?navigate=yes&to=ll.31.4233911%2C34.5921372
נתיבות,סעדון,ירושלמי,"אור לצוין 37
",31.4267285,34.58324950000001,https://www.waze.com/live-map/directions?navigate=yes&to=ll.31.4267285%2C34.58324950000001
נתניה,.S.N.A.C,אשכנז,"צפת 5
",32.964648,35.495997,https://www.waze.com/live-map/directions?navigate=yes&to=ll.32.964648%2C35.495997
נתניה,אוהל משה,ירושלמי," חתם סופר 4
",32.3121361,34.8567903,https://www.waze.com/live-map/directions?navigate=yes&to=ll.32.3121361%2C34.8567903
נתניה,אוהל משיח,ירושלמי,"תשרי 1
",32.296472,34.869878,https://www.waze.com/live-map/directions?navigate=yes&to=ll.32.296472%2C34.869878
נתניה,אוהל נחמיה,,"רבי עקיבא  1
",32.3434644,34.8569658,https://www.waze.com/live-map/directions?navigate=yes&to=ll.32.3434644%2C34.8569658
סביון,תפארת יצחק,אשכנז,"הדרום 12
",32.0470842,34.8785202,https://www.waze.com/live-map/directions?navigate=yes&to=ll.32.0470842%2C34.8785202
עומר,מגן אברהם,לפי החזן,"מרגנית  20
",31.2697409,34.8491804,https://www.waze.com/live-map/directions?navigate=yes&to=ll.31.2697409%2C34.8491804
עין העמק,בית הכנסת עין העמק,ירושלמי,"עין העמק 12
",32.628361,35.078913,https://www.waze.com/live-map/directions?navigate=yes&to=ll.32.628361%2C35.078913
עכו,בית חבד עכו,חבד,"דרך הארבעה 41
",32.9281362,35.0793705,https://www.waze.com/live-map/directions?navigate=yes&to=ll.32.9281362%2C35.0793705
עכו,מרכז תורה עש האדמור הזקן עכו,חבד,"דוד נוי 19
",32.9290204,35.0727443,https://www.waze.com/live-map/directions?navigate=yes&to=ll.32.9290204%2C35.0727443
עפולה,אהל שלמה,אשכנז,"ראסל  27
",32.6252657,35.3303273,https://www.waze.com/live-map/directions?navigate=yes&to=ll.32.6252657%2C35.3303273
עפולה,גאולי ה´,,"גורדון 15
",32.6296637,35.319584,https://www.waze.com/live-map/directions?navigate=yes&to=ll.32.6296637%2C35.319584
עפולה,היכל חביב,ירושלמי,"חבצלת  1
",32.6143011,35.2851589,https://www.waze.com/live-map/directions?navigate=yes&to=ll.32.6143011%2C35.2851589
עפרה,מנין הפנס,אחיד,"ההגנה 2
",32.0869882,34.88424639999999,https://www.waze.com/live-map/directions?navigate=yes&to=ll.32.0869882%2C34.88424639999999
ערד,בית יום טוב ליפמן,חסידי,"חן 60
",31.2553809,35.2046932,https://www.waze.com/live-map/directions?navigate=yes&to=ll.31.2553809%2C35.2046932
עתלית,בית כנסת עתלית,לפי החזן," המבצר / שחף 22
",32.7058932,34.9435219,https://www.waze.com/live-map/directions?navigate=yes&to=ll.32.7058932%2C34.9435219
פרדס חנה כרכור,האוהל,לפי החזן,"תחכמוני 4
",32.4611859,34.9757019,https://www.waze.com/live-map/directions?navigate=yes&to=ll.32.4611859%2C34.9757019
פרדס חנה כרכור,חבד,חבד,"המדרשיה 10
",32.4698305,34.9659338,https://www.waze.com/live-map/directions?navigate=yes&to=ll.32.4698305%2C34.9659338
פרדס חנה כרכור,קול יאודה,ירושלמי,"מוריה 5 1
",32.4711254,34.979998,https://www.waze.com/live-map/directions?navigate=yes&to=ll.32.4711254%2C34.979998
פתח תקוה,אוהל דן ליצאי איתיופיה,,"הנרייטה סולד 44
",32.0764442,34.8971902,https://www.waze.com/live-map/directions?navigate=yes&to=ll.32.0764442%2C34.8971902
פתח תקוה,אבי עזרי - חניכי הישיבות,אשכנז,"ארלוזורוב 3
",32.0850457,34.8778461,https://www.waze.com/live-map/directions?navigate=yes&to=ll.32.0850457%2C34.8778461
פתח תקוה,אהבת ישראל,ירושלמי,"המלכים 11
",32.0954681,34.8885989,https://www.waze.com/live-map/directions?navigate=yes&to=ll.32.0954681%2C34.8885989
קדומים,שטיבל ברויאר,,"ברקת 1
",32.21239,35.157388,https://www.waze.com/live-map/directions?navigate=yes&to=ll.32.21239%2C35.157388
קדימה,קהילתי בית מנחם חבד,חבד,"אברהם אביקסיס 6
",32.277644,34.919297,https://www.waze.com/live-map/directions?navigate=yes&to=ll.32.277644%2C34.919297
קיסריה,המרכזי קיסריה,אחיד,"שדרות רוטשילד 101 ליד בית הספר
",32.519016,34.904544,https://www.waze.com/live-map/directions?navigate=yes&to=ll.32.519016%2C34.904544
קרית אונו,אור מנחם - חבד,חבד,"יהואש 10
",32.0574975,34.8626537,https://www.waze.com/live-map/directions?navigate=yes&to=ll.32.0574975%2C34.8626537
קרית אונו,נשלסק,אחיד,"נחלת פינקס 13
",32.0639762,34.8533654,https://www.waze.com/live-map/directions?navigate=yes&to=ll.32.0639762%2C34.8533654
קרית ארבע,יחד שבטי ישראל,,"רחוב נחל אשכול מקלט 6
",31.5317233,35.1179569,https://www.waze.com/live-map/directions?navigate=yes&to=ll.31.5317233%2C35.1179569
קרית אתא,אהל פנחס,חסידי,"ירושלים 27
",32.8017703,35.10978920000001,https://www.waze.com/live-map/directions?navigate=yes&to=ll.32.8017703%2C35.10978920000001
קרית אתא,בית מנחם,חבד,"חנקין 20
",32.811723,35.1091655,https://www.waze.com/live-map/directions?navigate=yes&to=ll.32.811723%2C35.1091655
קרית ביאליק,אהבת שלום,חבד,"שושנים 10
",32.850671,35.096248,https://www.waze.com/live-map/directions?navigate=yes&to=ll.32.850671%2C35.096248
קרית ביאליק,בית הכנסת לצעירים שבטי ישראל,אחיד,"השקדים 5
",32.8349261,35.0896676,https://www.waze.com/live-map/directions?navigate=yes&to=ll.32.8349261%2C35.0896676
קרית ביאליק,בית מנחם,לפי החזן,"לילך 11
",32.8349527,35.1026324,https://www.waze.com/live-map/directions?navigate=yes&to=ll.32.8349527%2C35.1026324
קרית ביאליק,הדרת קודש,,"שדרות בן גוריון 32
",32.8311321,35.0864876,https://www.waze.com/live-map/directions?navigate=yes&to=ll.32.8311321%2C35.0864876
קרית גת,בית חבד,חבד,"אהוד בן גרא  8
",31.6163548,34.7645629,https://www.waze.com/live-map/directions?navigate=yes&to=ll.31.6163548%2C34.7645629
קרית גת,הגדול קרית גת,אשכנז,"אליהו הנביא 3
",31.6111965,34.7649412,https://www.waze.com/live-map/directions?navigate=yes&to=ll.31.6111965%2C34.7649412
קרית חיים,חבד,חבד,"אחי אילת  15
",32.8216688,35.0690718,https://www.waze.com/live-map/directions?navigate=yes&to=ll.32.8216688%2C35.0690718
קרית ים,אשרי המאמין,,"פנקס 1
",32.8500508,35.0696231,https://www.waze.com/live-map/directions?navigate=yes&to=ll.32.8500508%2C35.0696231
קרית יערים,ישיבת נוה ציון,אשכנז,"הרב א. גורדון 141
",31.8039931,35.1044819,https://www.waze.com/live-map/directions?navigate=yes&to=ll.31.8039931%2C35.1044819
קרית מוצקין,חבד מנחם לציון,חבד,"שדרות קרן קיימת 8
",32.838202,35.079523,https://www.waze.com/live-map/directions?navigate=yes&to=ll.32.838202%2C35.079523
קרית מלאכי,חבד- תפארת אליעזר,חבד,"התאנה 3
",31.7306145,34.7403509,https://www.waze.com/live-map/directions?navigate=yes&to=ll.31.7306145%2C34.7403509
קרית מלאכי,שערי שמים,ירושלמי,"בן גוריון 40
",31.7302499,34.7421351,https://www.waze.com/live-map/directions?navigate=yes&to=ll.31.7302499%2C34.7421351
קרית ספר,קהילת אשכנז,אשכנז,"חתם סופר 2
",31.9331619,35.04654,https://www.waze.com/live-map/directions?navigate=yes&to=ll.31.9331619%2C35.04654
קרית שמואל,חבד,חבד,"בר אילן 1
",32.0171153,34.749639,https://www.waze.com/live-map/directions?navigate=yes&to=ll.32.0171153%2C34.749639
קרית שמואל,נהריים,אשכנז,"דב פרומר  25
",32.8402581,35.0721582,https://www.waze.com/live-map/directions?navigate=yes&to=ll.32.8402581%2C35.0721582
קרית שמונה,אחוות לוחמים-מלון הצפון,ירושלמי,"טשרניחובסקי-מול אגד 1
",33.2105072,35.5689456,https://www.waze.com/live-map/directions?navigate=yes&to=ll.33.2105072%2C35.5689456
קרית שמונה,בית חבד,לפי החזן,"הלבנון 14
",33.2201164,35.570342,https://www.waze.com/live-map/directions?navigate=yes&to=ll.33.2201164%2C35.570342
קרית שמונה,בן ציון,אשכנז,"אורי אילן 21
",33.2060882,35.5700165,https://www.waze.com/live-map/directions?navigate=yes&to=ll.33.2060882%2C35.5700165
קרית שמונה,ישורון,ירושלמי,"הרצל 14
",33.2109678,35.5673399,https://www.waze.com/live-map/directions?navigate=yes&to=ll.33.2109678%2C35.5673399
ראש העין,אדמון ספרא,אחיד,"עין גדי 24
",32.0874467,34.9595086,https://www.waze.com/live-map/directions?navigate=yes&to=ll.32.0874467%2C34.9595086
ראש העין,אפיריון שלמה,לפי החזן,"חוגלה 11
",32.1028786,34.9609796,https://www.waze.com/live-map/directions?navigate=yes&to=ll.32.1028786%2C34.9609796
ראש העין,הודו,לפי החזן,"גון קנדי 25
",32.0939915,34.9522409,https://www.waze.com/live-map/directions?navigate=yes&to=ll.32.0939915%2C34.9522409
ראש העין,זכור לאברהם,אשכנז,"משה דיין 2
",32.0927754,34.96621680000001,https://www.waze.com/live-map/directions?navigate=yes&to=ll.32.0927754%2C34.96621680000001
ראשון לציון,אור החיים,צפון אפריקה,"הסביון  4
",31.9711289,34.7846067,https://www.waze.com/live-map/directions?navigate=yes&to=ll.31.9711289%2C34.7846067
ראשון לציון,אחדות ראשונים,אחיד,"שרירא  21
",31.964082,34.821441,https://www.waze.com/live-map/directions?navigate=yes&to=ll.31.964082%2C34.821441
ראשון לציון,איחוד שיבת ציון,אשכנז,"כצנלסון 1
",31.9670475,34.7994445,https://www.waze.com/live-map/directions?navigate=yes&to=ll.31.9670475%2C34.7994445
ראשון לציון,איחוד שיבת ציון - נווה שמואל,אשכנז,"קפלן 4
",31.9682468,34.7950755,https://www.waze.com/live-map/directions?navigate=yes&to=ll.31.9682468%2C34.7950755
רבבה ישוב,רבבות אפרים,לפי החזן,"נחל שילה 323
",32.1188572,35.1279678,https://www.waze.com/live-map/directions?navigate=yes&to=ll.32.1188572%2C35.1279678
רחובות,אהבה ואחוה,ירושלמי,"דרך יבנה 32
",31.899962,34.8038808,https://www.waze.com/live-map/directions?navigate=yes&to=ll.31.899962%2C34.8038808
רחובות,אהל שרה,אשכנז,"בינימין 45
",31.8957744,34.8167281,https://www.waze.com/live-map/directions?navigate=yes&to=ll.31.8957744%2C34.8167281
רחובות,אוהל יצחק,אחיד,"לחי 36
",31.8907904,34.8226698,https://www.waze.com/live-map/directions?navigate=yes&to=ll.31.8907904%2C34.8226698
רחובות,אוהל שי,אשכנז,"מלצר 9
",31.892773,34.811272,https://www.waze.com/live-map/directions?navigate=yes&to=ll.31.892773%2C34.811272
רחלים,בית נחמיה,לפי החזן,"רחלים 10
",32.10246,35.257756,https://www.waze.com/live-map/directions?navigate=yes&to=ll.32.10246%2C35.257756
רכסים,אור לציון,ירושלמי,"הוורדים 7
",32.7563702,35.0965128,https://www.waze.com/live-map/directions?navigate=yes&to=ll.32.7563702%2C35.0965128
רכסים,חניכי הישיבות - אוהל מלכה,אשכנז,"חצב 3
",32.7504382,35.1060565,https://www.waze.com/live-map/directions?navigate=yes&to=ll.32.7504382%2C35.1060565
רכסים,מאורות,אשכנז,"דרך הרב 2
",32.7468347,35.1054429,https://www.waze.com/live-map/directions?navigate=yes&to=ll.32.7468347%2C35.1054429
רכסים,שארית הפליטה,אשכנז,"הכלניות 20
",32.7538083,35.0994513,https://www.waze.com/live-map/directions?navigate=yes&to=ll.32.7538083%2C35.0994513
רכסים,שבת אחים,אשכנז,"הוורדים 7
",32.7563702,35.0965128,https://www.waze.com/live-map/directions?navigate=yes&to=ll.32.7563702%2C35.0965128
רמלה,אוהל יעקב,,"הלילך  3
",31.92141089999999,34.86221099999999,https://www.waze.com/live-map/directions?navigate=yes&to=ll.31.92141089999999%2C34.86221099999999
רמלה,חיזוק אמונה,,"בן צבי  8
",31.9306509,34.85944190000001,https://www.waze.com/live-map/directions?navigate=yes&to=ll.31.9306509%2C34.85944190000001
רמת אביב,הקהילה החדשה של רמת אביב,אשכנז,"דניאל מוריץ 12
",32.117097,34.7988468,https://www.waze.com/live-map/directions?navigate=yes&to=ll.32.117097%2C34.7988468
רמת אביב,חבד,חבד,"טאגור 32
",32.1162252,34.7972027,https://www.waze.com/live-map/directions?navigate=yes&to=ll.32.1162252%2C34.7972027
רמת אביב,נוה קדש,אשכנז,"אופנהיימר (שכונת נווה אביבים) 5
",32.1196741,34.800141,https://www.waze.com/live-map/directions?navigate=yes&to=ll.32.1196741%2C34.800141
רמת בית שמש,אהבת שלום,אשכנז,"נחל לכיש 33
",31.7135553,34.9941618,https://www.waze.com/live-map/directions?navigate=yes&to=ll.31.7135553%2C34.9941618
רמת בית שמש,אור שלום,אשכנז,"נחל מאור 27
",31.708258,34.999529,https://www.waze.com/live-map/directions?navigate=yes&to=ll.31.708258%2C34.999529
רמת בית שמש,בית תפילה יונה אברהם,אשכנז,"נחל רפאים 34
",31.7110375,34.9968033,https://www.waze.com/live-map/directions?navigate=yes&to=ll.31.7110375%2C34.9968033
רמת בית שמש,משכן שילה,אשכנז,"נחל עין גדי 37
",31.7148973,34.9824254,https://www.waze.com/live-map/directions?navigate=yes&to=ll.31.7148973%2C34.9824254
רמת בית שמש,פני שמואל,אשכנז,"נחל לוז  3
",31.7112474,34.9960853,https://www.waze.com/live-map/directions?navigate=yes&to=ll.31.7112474%2C34.9960853
רמת בית שמש,קהילת אהבת ציון,אשכנז,"נחל תמנה 2
",31.7144547,34.9986675,https://www.waze.com/live-map/directions?navigate=yes&to=ll.31.7144547%2C34.9986675
רמת בית שמש,קהילת טוהר לב ברמה,לפי החזן,"נחל קטלב 1
",31.7159763,34.9980229,https://www.waze.com/live-map/directions?navigate=yes&to=ll.31.7159763%2C34.9980229
רמת בית שמש,קהילת שבטי ישרון,אשכנז,"נחל דולב 2
",31.7162823,34.99937810000001,https://www.waze.com/live-map/directions?navigate=yes&to=ll.31.7162823%2C34.99937810000001
רמת בית שמש,רמת שלום,אשכנז,"נחל דולב 43
",31.712991,34.9992342,https://www.waze.com/live-map/directions?navigate=yes&to=ll.31.712991%2C34.9992342
רמת גן,נוסח אשכנז,אשכנז,"         ההלכה    9
",32.075441,34.8260661,https://www.waze.com/live-map/directions?navigate=yes&to=ll.32.075441%2C34.8260661
רמת גן,אגודת אלימלך,אחיד,"אלימלך 7
",32.0865065,34.815974,https://www.waze.com/live-map/directions?navigate=yes&to=ll.32.0865065%2C34.815974
רמת גן,אהל לאה,אחיד,"הפודים  49
",32.0936143,34.8216368,https://www.waze.com/live-map/directions?navigate=yes&to=ll.32.0936143%2C34.8216368
רמת השרון,בית אל,,"אלחריזי 4
",32.1316794,34.8577306,https://www.waze.com/live-map/directions?navigate=yes&to=ll.32.1316794%2C34.8577306
רמת השרון,גאולת ישראל,אשכנז,"רבנו תם 4
",32.1435571,34.8396953,https://www.waze.com/live-map/directions?navigate=yes&to=ll.32.1435571%2C34.8396953
רמת השרון,היכל יוסף,אשכנז,"יצחק אלחנן 7
",32.148718,34.830763,https://www.waze.com/live-map/directions?navigate=yes&to=ll.32.148718%2C34.830763
רמת השרון,חבד.,חבד,"בית גוברין 7
",32.1289887,34.8530709,https://www.waze.com/live-map/directions?navigate=yes&to=ll.32.1289887%2C34.8530709
רמת השרון,מניין ישראל,אחיד,"הבנים 46
",32.1443478,34.8334001,https://www.waze.com/live-map/directions?navigate=yes&to=ll.32.1443478%2C34.8334001
רמת השרון,רבנו תם,אשכנז,"רבנו תם 4
",32.1435571,34.8396953,https://www.waze.com/live-map/directions?navigate=yes&to=ll.32.1435571%2C34.8396953
רמת ישי,זכות השתיקה,לפי החזן,"האלון 111
",32.6998847,35.1625495,https://www.waze.com/live-map/directions?navigate=yes&to=ll.32.6998847%2C35.1625495
רעננה,אדמון ספרא - קהילת אחוות רעים,אחיד,"הסייפן לב הפארק 10
",32.1912232,34.8488355,https://www.waze.com/live-map/directions?navigate=yes&to=ll.32.1912232%2C34.8488355
רעננה,אריאל,לפי החזן,"ששת הימים 33
",32.1818488,34.8828919,https://www.waze.com/live-map/directions?navigate=yes&to=ll.32.1818488%2C34.8828919
רעננה,בית חבד ליובאוויטש רעננה,חבד,"ברנר 1 פינת אחוזה 85
",32.1794254,34.8784192,https://www.waze.com/live-map/directions?navigate=yes&to=ll.32.1794254%2C34.8784192
רעננה,בית חבד,חבד,"אחוזה 153
",32.1812075,34.870683,https://www.waze.com/live-map/directions?navigate=yes&to=ll.32.1812075%2C34.870683
רעננה,בית משיח - מרכז חבד,חבד,"אחוזה  83
",32.1794013,34.8787903,https://www.waze.com/live-map/directions?navigate=yes&to=ll.32.1794013%2C34.8787903
שדמות מחולה,שדמות מחולה,לפי החזן,"שדמות מחולה 0
",32.347731,35.530587,https://www.waze.com/live-map/directions?navigate=yes&to=ll.32.347731%2C35.530587
שדרות,אלקא דמאיר,לפי החזן,"רמבם 402
",31.525523,34.5899827,https://www.waze.com/live-map/directions?navigate=yes&to=ll.31.525523%2C34.5899827
שדרות,בין איש חי,ירושלמי,"ברנר 3
",31.5302897,34.6051537,https://www.waze.com/live-map/directions?navigate=yes&to=ll.31.5302897%2C34.6051537
שדרות,חבד,חבד,"חטיבת גבעתי 11
",31.5285613,34.5920654,https://www.waze.com/live-map/directions?navigate=yes&to=ll.31.5285613%2C34.5920654
שדרות,חנכי הישיבות,ירושלמי,"השיטה  10
",31.5212403,34.5977416,https://www.waze.com/live-map/directions?navigate=yes&to=ll.31.5212403%2C34.5977416
שדרות,ישיבת הסדר- לב לדעת,לפי החזן,"חטיבת גבעתי 35
",31.52880699999999,34.5921069,https://www.waze.com/live-map/directions?navigate=yes&to=ll.31.52880699999999%2C34.5921069
שוהם,חבד,חבד,"עמק אילון 28
",31.9984205,34.9475186,https://www.waze.com/live-map/directions?navigate=yes&to=ll.31.9984205%2C34.9475186
שפים,מנין למנחה בחוצות שפיים,לפי החזן,"חוצות שפיים קומה 4
",32.2208333,34.8283333,https://www.waze.com/live-map/directions?navigate=yes&to=ll.32.2208333%2C34.8283333
תל אביב, עזריאלי שרונה,לפי החזן,"מנחם בגין 121
",32.0727491,34.7880819,https://www.waze.com/live-map/directions?navigate=yes&to=ll.32.0727491%2C34.7880819
תל אביב,'סי אנד סאן' עש משה אביב זל,לפי החזן,"הרצל רוזנבלום 6
",32.1378831,34.7913043,https://www.waze.com/live-map/directions?navigate=yes&to=ll.32.1378831%2C34.7913043
תל אביב,אדמורים מהוסיאטין,לפי החזן,"ביאליק 19
",32.0727985,34.7705369,https://www.waze.com/live-map/directions?navigate=yes&to=ll.32.0727985%2C34.7705369
תל אביב,אוהל יצחק,חבד,"חומה ומגדל 16
",32.0627139,34.7862871,https://www.waze.com/live-map/directions?navigate=yes&to=ll.32.0627139%2C34.7862871
תל אביב,אוהל ישראל,ירושלמי,"בן יהודה  159
",32.0885598,34.7733849,https://www.waze.com/live-map/directions?navigate=yes&to=ll.32.0885598%2C34.7733849
תל אביב,אוהל מועד,חסידי,"שדייל 5
",32.0632886,34.7749855,https://www.waze.com/live-map/directions?navigate=yes&to=ll.32.0632886%2C34.7749855
תל ציון,בני הישיבות,ירושלמי,"אהבת ישראל 11
",31.8785402,35.2398989,https://www.waze.com/live-map/directions?navigate=yes&to=ll.31.8785402%2C35.2398989
