City,Name,Nosah,Address,Latitude,Longitude,Navigate
אביבים,בני איילו,עדות המזרח,"גני  שמש 5
",33.090095,35.470221,https://www.waze.com/live-map/directions?navigate=yes&to=ll.33.090095%2C35.470221
אבן יהודה,המרכזי,ספרד,"המייסדים 68
",32.2696664,34.8873981,https://www.waze.com/live-map/directions?navigate=yes&to=ll.32.2696664%2C34.8873981
אבן יהודה,נווה צדק,תימן שאמי,"הנביאים 3 1
",32.2973425,34.8541837,https://www.waze.com/live-map/directions?navigate=yes&to=ll.32.2973425%2C34.8541837
אבן יהודה,שערי צדק,תימן,"מרבד הקסמים  31
",32.2812306,34.8854063,https://www.waze.com/live-map/directions?navigate=yes&to=ll.32.2812306%2C34.8854063
אבן יהודה,תפארת ישראל,תימן,"הבנים 69
",32.2812536,34.8790658,https://www.waze.com/live-map/directions?navigate=yes&to=ll.32.2812536%2C34.8790658
אדם,אהבת אדם,עדות המזרח,"שדרות אדם 61
",31.8501944,35.2809013,https://www.waze.com/live-map/directions?navigate=yes&to=ll.31.8501944%2C35.2809013
אונו קרית אונו,אליהו הנביא,יוצאי לוב (טריפוליטאים),"לוס אנגלס 4
",32.0636575,34.8580742,https://www.waze.com/live-map/directions?navigate=yes&to=ll.32.0636575%2C34.8580742
אונו קרית אונו,בית הכנסת המרכזי,ספרד,"וינגייט 22
",32.0621487,34.853837,https://www.waze.com/live-map/directions?navigate=yes&to=ll.32.0621487%2C34.853837
אונו קרית אונו,יד הרמבם,תימן בלדי,"לוס אנג´לס 28
",32.0636412,34.8601963,https://www.waze.com/live-map/directions?navigate=yes&to=ll.32.0636412%2C34.8601963
אונו קרית אונו,שיבת ציון,תימן בלדי,"רח´ שיבת ציון 6
",32.065427,34.859593,https://www.waze.com/live-map/directions?navigate=yes&to=ll.32.065427%2C34.859593
אופקים,אוהל אברהם ושרה,עדות המזרח,"גיבורי ישראל 1008
",31.3101829,34.6183484,https://www.waze.com/live-map/directions?navigate=yes&to=ll.31.3101829%2C34.6183484
אופקים,התימנים,תימן,"צהל 3
",31.3120968,34.6191809,https://www.waze.com/live-map/directions?navigate=yes&to=ll.31.3120968%2C34.6191809
אופקים,מבצע שלמה,עדות המזרח,"הכרמים 45
",31.310687,34.6093927,https://www.waze.com/live-map/directions?navigate=yes&to=ll.31.310687%2C34.6093927
אור יהודה,משכן שמעיה,עדות המזרח,"ברחוב יוסף קארו 3
",32.0299262,34.8437959,https://www.waze.com/live-map/directions?navigate=yes&to=ll.32.0299262%2C34.8437959
אור יהודה,אוהל משה ומשכן יצחק,עדות המזרח,"יקותיאל אדם 33
",32.0313291,34.8643483,https://www.waze.com/live-map/directions?navigate=yes&to=ll.32.0313291%2C34.8643483
אור יהודה,אור התורה אבו יחזקאל,ספרד,"הרב עובדיה יוסף 25
",32.023675,34.8583789,https://www.waze.com/live-map/directions?navigate=yes&to=ll.32.023675%2C34.8583789
אור יהודה,אלי -כהן,עדות המזרח,"בן פורת (ההגנה)
",32.02815,34.850785,https://www.waze.com/live-map/directions?navigate=yes&to=ll.32.02815%2C34.850785
אור יהודה,בית הכנסת המרכזי לעולי בוכרה,ספרד,"ז´בוטינסקי 32
",32.0284273,34.8634215,https://www.waze.com/live-map/directions?navigate=yes&to=ll.32.0284273%2C34.8634215
אור יהודה,בית יעקב,עדות המזרח,"אסירי ציון  9
",32.0247372,34.8558932,https://www.waze.com/live-map/directions?navigate=yes&to=ll.32.0247372%2C34.8558932
אור יהודה,בן איש חי,עדות המזרח,"הרצל 56
",32.0316706,34.8442176,https://www.waze.com/live-map/directions?navigate=yes&to=ll.32.0316706%2C34.8442176
אור יהודה,גאולי ה´ עולי גרוזיה,עדות המזרח,"ז´בוטינסקי  16
",32.0273086,34.8637692,https://www.waze.com/live-map/directions?navigate=yes&to=ll.32.0273086%2C34.8637692
אור יהודה,היכל יצחק דוד,עדות המזרח,"דוד אלעזר 10
",32.0272019,34.8663115,https://www.waze.com/live-map/directions?navigate=yes&to=ll.32.0272019%2C34.8663115
אור יהודה,היכל שמואל,עדות המזרח,"שרת 11
",32.029748,34.85617300000001,https://www.waze.com/live-map/directions?navigate=yes&to=ll.32.029748%2C34.85617300000001
אור יהודה,יחזקאל צדוק יל,עדות המזרח,"ספיר שכונת נוה סביון  7
",32.0293035,34.8624894,https://www.waze.com/live-map/directions?navigate=yes&to=ll.32.0293035%2C34.8624894
אור יהודה,כתר מנחם,עדות המזרח,"יקותיאל אדם 31
",32.0313534,34.8640011,https://www.waze.com/live-map/directions?navigate=yes&to=ll.32.0313534%2C34.8640011
אור יהודה,מצלאוי,ספרד,"ניצן 3
",32.026845,34.87282990000001,https://www.waze.com/live-map/directions?navigate=yes&to=ll.32.026845%2C34.87282990000001
אור יהודה,משכן שמעון,יוצאי לוב (טריפוליטאים),"אסירי ציון 9
",32.0247372,34.8558932,https://www.waze.com/live-map/directions?navigate=yes&to=ll.32.0247372%2C34.8558932
אור יהודה,נווה שלום,עדות המזרח,"יקותיאל אדם  31
",32.0313534,34.8640011,https://www.waze.com/live-map/directions?navigate=yes&to=ll.32.0313534%2C34.8640011
אור עקיבא,עזרת אחים,עדות המזרח,"הרצל 22
",32.5101634,34.9155813,https://www.waze.com/live-map/directions?navigate=yes&to=ll.32.5101634%2C34.9155813
אור עקיבא,שיח יצחק,מרוקו,"הגבורים 10
",32.5103715,34.9208954,https://www.waze.com/live-map/directions?navigate=yes&to=ll.32.5103715%2C34.9208954
אורנית ישוב,חברנו,ספרד,"הורד 10
",32.1307446,34.9908602,https://www.waze.com/live-map/directions?navigate=yes&to=ll.32.1307446%2C34.9908602
אזור,ציונוב - בית יוסף ונתן,עדות המזרח,"ירושלים 143
",32.030134,34.80194,https://www.waze.com/live-map/directions?navigate=yes&to=ll.32.030134%2C34.80194
אזור,הדרת מלך,עדות המזרח,"וייצמן 3
",32.0239877,34.8064831,https://www.waze.com/live-map/directions?navigate=yes&to=ll.32.0239877%2C34.8064831
אזור,הפועל המזרחי,ספרד,"יצחק שדה 2
",32.025505,34.808183,https://www.waze.com/live-map/directions?navigate=yes&to=ll.32.025505%2C34.808183
אזור,שערי ירושלים,עדות המזרח,"ירושלים 59
",32.0316544,34.8003206,https://www.waze.com/live-map/directions?navigate=yes&to=ll.32.0316544%2C34.8003206
אזור,שערי ציון-הכיפות,עדות המזרח,"שפינוזה  2
",32.0239177,34.8037196,https://www.waze.com/live-map/directions?navigate=yes&to=ll.32.0239177%2C34.8037196
אחיהוד,שלוחי חבד,תימן,"השכונה החדשה 7
",32.907003,35.169556,https://www.waze.com/live-map/directions?navigate=yes&to=ll.32.907003%2C35.169556
אחיעזר,שערי צדק,תימן שאמי,"הדקל 100
",31.9836037,34.875974,https://www.waze.com/live-map/directions?navigate=yes&to=ll.31.9836037%2C34.875974
אילת,חזון עובדיה,עדות המזרח,"זהרון (מעל מרכז עינת) 11
",29.5569246,34.9342541,https://www.waze.com/live-map/directions?navigate=yes&to=ll.29.5569246%2C34.9342541
אילת,חסד לאברהם,עדות המזרח,"לוס אנג'לס 5
",29.5573251,34.945004,https://www.waze.com/live-map/directions?navigate=yes&to=ll.29.5573251%2C34.945004
אילת,ישורון,עדות המזרח,"המלחה 13
",29.566597,34.953264,https://www.waze.com/live-map/directions?navigate=yes&to=ll.29.566597%2C34.953264
אילת,נצח ישראל,עדות המזרח,"נבו 24
",29.557669,34.951925,https://www.waze.com/live-map/directions?navigate=yes&to=ll.29.557669%2C34.951925
אליקים,בית כנסת,תימן,"מושב קטן עם 7 בתי כנסת. להכנס ולשאול איפה
",32.633345,35.067613,https://www.waze.com/live-map/directions?navigate=yes&to=ll.32.633345%2C35.067613
אלישמע,אוהל יעקב,יוצאי לוב (טריפוליטאים),"האילנות 87
",32.154778,34.930461,https://www.waze.com/live-map/directions?navigate=yes&to=ll.32.154778%2C34.930461
אלעד,אחוות אחים,תימן שאמי,"רבי פנחס בן יאיר 22
",32.0504846,34.959488,https://www.waze.com/live-map/directions?navigate=yes&to=ll.32.0504846%2C34.959488
אלעד,בית מאור,מרוקו,"אבן גבירול 20
",32.0538871,34.958448,https://www.waze.com/live-map/directions?navigate=yes&to=ll.32.0538871%2C34.958448
אלעד,חסד לאברהם - אור החיים,עדות המזרח,"אבטליון 11
",32.047281,34.9492579,https://www.waze.com/live-map/directions?navigate=yes&to=ll.32.047281%2C34.9492579
אלפי מנשה,אבא-שמעון,עדות המזרח,"אודם 6
",32.1746744,35.0117576,https://www.waze.com/live-map/directions?navigate=yes&to=ll.32.1746744%2C35.0117576
אלקנה,אשל אלקנה,ספרד,"גבעת הלבונה 7
",32.1108495,35.0326877,https://www.waze.com/live-map/directions?navigate=yes&to=ll.32.1108495%2C35.0326877
אפרת,אור חביב,מרוקו,"המלך דוד דקל ג 72
",31.653589,35.149934,https://www.waze.com/live-map/directions?navigate=yes&to=ll.31.653589%2C35.149934
אפרת,אורות הזית,עדות המזרח,"יהודה המכבי 8 אפרת
",31.6720847,35.1632555,https://www.waze.com/live-map/directions?navigate=yes&to=ll.31.6720847%2C35.1632555
אריאל,אביר יעקב,ספרד,"יודפת 10
",32.1040962,35.1962841,https://www.waze.com/live-map/directions?navigate=yes&to=ll.32.1040962%2C35.1962841
אריאל,אוהל יוסף,עדות המזרח,"הפיסגה 10
",32.107165,35.1778904,https://www.waze.com/live-map/directions?navigate=yes&to=ll.32.107165%2C35.1778904
אריאל,אחוות אחים,תימן שאמי,"הפיסגה 10
",32.107165,35.1778904,https://www.waze.com/live-map/directions?navigate=yes&to=ll.32.107165%2C35.1778904
אריאל,תפארת אריאל,תימן,"השומרון  1
",32.103291,35.1718216,https://www.waze.com/live-map/directions?navigate=yes&to=ll.32.103291%2C35.1718216
אשדוד,אדר היקר הרב זיני,מרוקו,"שבי ציון 14אזור א
",31.8075422,34.6474321,https://www.waze.com/live-map/directions?navigate=yes&to=ll.31.8075422%2C34.6474321
אשדוד,אהבה ואחווה לעולי מצרים,ספרד,"הראשונים  41
",31.8051076,34.6447718,https://www.waze.com/live-map/directions?navigate=yes&to=ll.31.8051076%2C34.6447718
אשדוד,אהבת ישראל עש ר´ ראובן פינטו,מרוקו,"הגולשים 26
",31.7994404,34.6390152,https://www.waze.com/live-map/directions?navigate=yes&to=ll.31.7994404%2C34.6390152
אשדוד,אהל יעקב,ספרד,"המעפילים  39
",31.8046575,34.6498237,https://www.waze.com/live-map/directions?navigate=yes&to=ll.31.8046575%2C34.6498237
אשדוד,אוהל אהרון וחנה,עדות המזרח,"הצבעוני  2
",31.789964,34.649996,https://www.waze.com/live-map/directions?navigate=yes&to=ll.31.789964%2C34.649996
אשדוד,אור יצחק- נוסח גרוזיה,עדות המזרח,"הציונות 10
",31.7871343,34.6433074,https://www.waze.com/live-map/directions?navigate=yes&to=ll.31.7871343%2C34.6433074
אשדוד,אחוות ישראל אשדוד עש ר' מאיר אבוחצירא,מרוקו,"כנרת 67
",31.7834003,34.6336657,https://www.waze.com/live-map/directions?navigate=yes&to=ll.31.7834003%2C34.6336657
אשקלון,משכן אביחי ,תימן בלדי,"לכיש 16
",31.666473,34.5819826,https://www.waze.com/live-map/directions?navigate=yes&to=ll.31.666473%2C34.5819826
אשקלון,אביר יעקב יאיר,עדות המזרח,"הרב כלפון משה הכהן  5
",31.7212815,35.2256472,https://www.waze.com/live-map/directions?navigate=yes&to=ll.31.7212815%2C35.2256472
אשקלון,אהבת אחים,עדות המזרח,"הציונות 72 72
",31.6868342,34.5811413,https://www.waze.com/live-map/directions?navigate=yes&to=ll.31.6868342%2C34.5811413
אשקלון,אהבת ציון,תימן שאמי,"אבן עזרא  6
",31.6685999,34.59034,https://www.waze.com/live-map/directions?navigate=yes&to=ll.31.6685999%2C34.59034
אשקלון,אהבת תורה,עדות המזרח," 11
",31.6687885,34.5742523,https://www.waze.com/live-map/directions?navigate=yes&to=ll.31.6687885%2C34.5742523
אשקלון,אוהל משה,עדות המזרח,"ההסיתדרות 98
",31.6539662,34.5547132,https://www.waze.com/live-map/directions?navigate=yes&to=ll.31.6539662%2C34.5547132
אשקלון,בית אליהו,עדות המזרח,"הטייסים 91
",31.6741752,34.5581237,https://www.waze.com/live-map/directions?navigate=yes&to=ll.31.6741752%2C34.5581237
אשקלון,בית הכנסת לצעירים סניף בני עקיבא אפרידר,עדות המזרח,"אורט 13
",31.66928489999999,34.5677872,https://www.waze.com/live-map/directions?navigate=yes&to=ll.31.66928489999999%2C34.5677872
אשקלון,בית הרב,עדות המזרח,"חוגלה 9
",31.690764,34.574212,https://www.waze.com/live-map/directions?navigate=yes&to=ll.31.690764%2C34.574212
אשקלון,בני ציון,יוצאי לוב (טריפוליטאים),"ביאליק 12
",31.6608524,34.56962540000001,https://www.waze.com/live-map/directions?navigate=yes&to=ll.31.6608524%2C34.56962540000001
אשקלון,בני תורה,עדות המזרח,"שי עגנון 10 10
",31.65858,34.55831800000001,https://www.waze.com/live-map/directions?navigate=yes&to=ll.31.65858%2C34.55831800000001
אשתאול,נצח ישראל,תימן שאמי,"נחל אדוריים 49
",31.779758,35.010546,https://www.waze.com/live-map/directions?navigate=yes&to=ll.31.779758%2C35.010546
באר יעקב,אהל מיכאל-רשבי ,מרוקו,"רחוב חזון איש 4
",31.9441001,34.8396304,https://www.waze.com/live-map/directions?navigate=yes&to=ll.31.9441001%2C34.8396304
באר יעקב,ברקת,עדות המזרח,"שכונת צמרות
",31.94153519999999,34.82732,https://www.waze.com/live-map/directions?navigate=yes&to=ll.31.94153519999999%2C34.82732
באר שבע,אהבת חנה,עדות המזרח,"מקס ברוייד14
",31.2656241,34.7582505,https://www.waze.com/live-map/directions?navigate=yes&to=ll.31.2656241%2C34.7582505
באר שבע,אור שלום,מרוקו,"רזיאל 7
",31.2580703,34.8104333,https://www.waze.com/live-map/directions?navigate=yes&to=ll.31.2580703%2C34.8104333
באר שבע,אורות הזוהר,מרוקו,"חשין 13
",31.2691829,34.7749127,https://www.waze.com/live-map/directions?navigate=yes&to=ll.31.2691829%2C34.7749127
באר שבע,אליהו הנביא זלט ( נוסח בגדד ),עדות המזרח,"השומר
",31.2471231,34.794154,https://www.waze.com/live-map/directions?navigate=yes&to=ll.31.2471231%2C34.794154
בארי,שערי צדק,ספרד,"בארי 58
",41.1171432,16.8718715,https://www.waze.com/live-map/directions?navigate=yes&to=ll.41.1171432%2C16.8718715
בית אל,אוהל חיים,עדות המזרח,"ארץ חמדה 22
",31.9438523,35.2197774,https://www.waze.com/live-map/directions?navigate=yes&to=ll.31.9438523%2C35.2197774
בית אליעזר,בית יצחק,ספרד,"גדות  2
",32.428095,34.950077,https://www.waze.com/live-map/directions?navigate=yes&to=ll.32.428095%2C34.950077
בית אליעזר,נצח ישראל,תימן,"התאנים 13
",31.8355404,34.8005815,https://www.waze.com/live-map/directions?navigate=yes&to=ll.31.8355404%2C34.8005815
בית דגן,אוהל תורה,תימן בלדי,"טרומפלדור 14
",32.00315,34.8336829,https://www.waze.com/live-map/directions?navigate=yes&to=ll.32.00315%2C34.8336829
בית דגן,אלי כהן,מרוקו,"הגפן 5
",31.99943579999999,34.8276829,https://www.waze.com/live-map/directions?navigate=yes&to=ll.31.99943579999999%2C34.8276829
בית דגן,ברסלב,עדות המזרח,"קפלן 14
",31.9999785,34.8326794,https://www.waze.com/live-map/directions?navigate=yes&to=ll.31.9999785%2C34.8326794
בית דגן,מנחת שלמה,תימן בלדי,"כצנלסון 16
",32.0018692,34.8252129,https://www.waze.com/live-map/directions?navigate=yes&to=ll.32.0018692%2C34.8252129
בית שאן,היכל דוד ושלמה- חנוך לנער,ספרד,"שאול המלך 96
",32.4977958,35.5018398,https://www.waze.com/live-map/directions?navigate=yes&to=ll.32.4977958%2C35.5018398
בית שאן,זוהר התורה,ספרד,"הלורד בלפור 26
",32.4885158,35.4993269,https://www.waze.com/live-map/directions?navigate=yes&to=ll.32.4885158%2C35.4993269
בית שאן,ישראלי,ספרד,"אלי כהן 98
",32.497103,35.497336,https://www.waze.com/live-map/directions?navigate=yes&to=ll.32.497103%2C35.497336
בית שאן,שערי דניאל - חידושי משה,עדות המזרח,"העלייה (שכון א) 8
",32.5027156,35.4949938,https://www.waze.com/live-map/directions?navigate=yes&to=ll.32.5027156%2C35.4949938
בית שמש,אדרת אליהו,עדות המזרח,"קרן היסוד 4
",31.7498574,34.992473,https://www.waze.com/live-map/directions?navigate=yes&to=ll.31.7498574%2C34.992473
בית שמש,אהבה ושמחה - קרליבך,ספרד,"נחל דולב 70
",31.7121241,34.9995094,https://www.waze.com/live-map/directions?navigate=yes&to=ll.31.7121241%2C34.9995094
בית שמש,אור החמה,עדות המזרח,"המשלט 12
",31.7509094,34.9914281,https://www.waze.com/live-map/directions?navigate=yes&to=ll.31.7509094%2C34.9914281
בית שמש,אחדות ישראל,עדות המזרח,"בר אילן  74
",31.74218,34.99208,https://www.waze.com/live-map/directions?navigate=yes&to=ll.31.74218%2C34.99208
בית שמש,אש קודש,ספרד,"נחל מאוד  6
",31.7092903,35.0010095,https://www.waze.com/live-map/directions?navigate=yes&to=ll.31.7092903%2C35.0010095
בית שמש,בית אסתר,עדות המזרח,"הנורית 39
",31.7391693,34.9773433,https://www.waze.com/live-map/directions?navigate=yes&to=ll.31.7391693%2C34.9773433
ביתר עלית,אהל יוסף,עדות המזרח,"הבבא סאלי  20
",31.693395,35.110389,https://www.waze.com/live-map/directions?navigate=yes&to=ll.31.693395%2C35.110389
ביתר עלית,חניכי הישיבות,עדות המזרח,"הרבי מנדבורנא 2
",31.6929577,35.1104655,https://www.waze.com/live-map/directions?navigate=yes&to=ll.31.6929577%2C35.1104655
ביתר עלית,משכן הקדש,עדות המזרח,"אש קודש 6
",31.6924994,35.1152344,https://www.waze.com/live-map/directions?navigate=yes&to=ll.31.6924994%2C35.1152344
ביתר עלית,נזר הנחל,עדות המזרח,"ר´ יוסף קארו 18
",31.7010023,35.1119254,https://www.waze.com/live-map/directions?navigate=yes&to=ll.31.7010023%2C35.1119254
ביתר עלית,פאר הריבש-חניכי הישיבות,עדות המזרח,"ר´ יוסף קארו  2
",31.7010023,35.1119254,https://www.waze.com/live-map/directions?navigate=yes&to=ll.31.7010023%2C35.1119254
ביתר עלית,שם משמעון,עדות המזרח,"ר´ אלעזר המודעי  21
",31.6969514,35.1202655,https://www.waze.com/live-map/directions?navigate=yes&to=ll.31.6969514%2C35.1202655
בני ברק,בית יחיאל בנדיקט,ספרד,"סוקולוב 19
",32.0879274,34.8337946,https://www.waze.com/live-map/directions?navigate=yes&to=ll.32.0879274%2C34.8337946
בני ברק,הוילה,ספרד,"מוהליבר  12
",32.0792597,34.8280501,https://www.waze.com/live-map/directions?navigate=yes&to=ll.32.0792597%2C34.8280501
בני ברק,מצדה,ספרד,"אשל אברהם 13
",32.0825796,34.8424682,https://www.waze.com/live-map/directions?navigate=yes&to=ll.32.0825796%2C34.8424682
בני ברק,אגודת עץ חיים,תימן,"אבוחצירה 39
",32.0960394,34.8294302,https://www.waze.com/live-map/directions?navigate=yes&to=ll.32.0960394%2C34.8294302
בני ברק,אהלי אברהם,עדות המזרח,"נורוק   30
",32.084932,34.835226,https://www.waze.com/live-map/directions?navigate=yes&to=ll.32.084932%2C34.835226
בני ברק,אוהל אברהם,עדות המזרח,"הירש 19
",32.0804344,34.8324529,https://www.waze.com/live-map/directions?navigate=yes&to=ll.32.0804344%2C34.8324529
בני ברק,אוהל אברהם,ספרד,"הרב קוק 28
",32.0858096,34.8252898,https://www.waze.com/live-map/directions?navigate=yes&to=ll.32.0858096%2C34.8252898
בני ברק,אוהל יצחק,מרוקו,"רבי עקיבא  66
",32.0868189,34.8290466,https://www.waze.com/live-map/directions?navigate=yes&to=ll.32.0868189%2C34.8290466
בני ברק,אור יעקוב,עדות המזרח,"הירקון  50
",32.097039,34.829651,https://www.waze.com/live-map/directions?navigate=yes&to=ll.32.097039%2C34.829651
בני ברק,אור ישראל,עדות המזרח,"יהושע בן נון 17
",32.0926638,34.822589,https://www.waze.com/live-map/directions?navigate=yes&to=ll.32.0926638%2C34.822589
בני ברק,אורייתא,ספרד,"מנחם 25
",32.0886422,34.8236996,https://www.waze.com/live-map/directions?navigate=yes&to=ll.32.0886422%2C34.8236996
בני ברק,אחדות,עדות המזרח,"אבן גבירול 18
",32.0903764,34.8310526,https://www.waze.com/live-map/directions?navigate=yes&to=ll.32.0903764%2C34.8310526
בני ברק,אחווה ורעות,עדות המזרח,"אברבנאל 1
",32.0937576,34.8438272,https://www.waze.com/live-map/directions?navigate=yes&to=ll.32.0937576%2C34.8438272
בני עיש,מקור חיים,תימן,"הרב יחיא אלקשמה  18
",31.7933153,34.7621027,https://www.waze.com/live-map/directions?navigate=yes&to=ll.31.7933153%2C34.7621027
בנימינה,סוכת שלום (כתריאל),תימן שאמי,"הסחלב 25
",32.5246463,34.9350737,https://www.waze.com/live-map/directions?navigate=yes&to=ll.32.5246463%2C34.9350737
בנימינה,שער הרחמים (ברדוגו),עדות המזרח,"דרך העצמאות 60
",32.5244396,34.9346833,https://www.waze.com/live-map/directions?navigate=yes&to=ll.32.5244396%2C34.9346833
בנימינה,שערי צדק,תימן,"רקפת 17
",32.5261618,34.939135,https://www.waze.com/live-map/directions?navigate=yes&to=ll.32.5261618%2C34.939135
בת ים,נחליאלי,ספרד,"פנקס  1
",32.0188747,34.7471053,https://www.waze.com/live-map/directions?navigate=yes&to=ll.32.0188747%2C34.7471053
בת ים,רמות ים,ספרד,"בר אילן 27
",32.0148075,34.7481183,https://www.waze.com/live-map/directions?navigate=yes&to=ll.32.0148075%2C34.7481183
בת ים,אברהם בינימין שעשוע,עדות המזרח,"הלפר 22
",32.0279708,34.7454108,https://www.waze.com/live-map/directions?navigate=yes&to=ll.32.0279708%2C34.7454108
בת ים,אהבת ישראל,ספרד,"פנקס 2
",32.0187269,34.746671,https://www.waze.com/live-map/directions?navigate=yes&to=ll.32.0187269%2C34.746671
בת ים,אוהל ששון,יוצאי לוב (טריפוליטאים),"החרמון 4
",32.0988386,34.8309022,https://www.waze.com/live-map/directions?navigate=yes&to=ll.32.0988386%2C34.8309022
בת ים,אור החמה-היכל הקודש,עדות המזרח,"הנביאים 50
",32.0115763,34.7457204,https://www.waze.com/live-map/directions?navigate=yes&to=ll.32.0115763%2C34.7457204
בת ים,אור חדש,עדות המזרח,"אנה פרנק 16
",32.0049049,34.7545549,https://www.waze.com/live-map/directions?navigate=yes&to=ll.32.0049049%2C34.7545549
בת ים,אור ישראל,עדות המזרח,"גבעתי 6
",32.0152585,34.7470984,https://www.waze.com/live-map/directions?navigate=yes&to=ll.32.0152585%2C34.7470984
בת ים,בית אל,יוצאי לוב (טריפוליטאים),"בן ציון ישראל 15
",32.0160555,34.7467473,https://www.waze.com/live-map/directions?navigate=yes&to=ll.32.0160555%2C34.7467473
בת ים,בית יעקב,ספרד,"סמטת אופיר  6
",32.0207361,34.7571347,https://www.waze.com/live-map/directions?navigate=yes&to=ll.32.0207361%2C34.7571347
בת ים,בית יעקב,ספרד,"סמטת הכרמל  4
",32.0112516,34.7604576,https://www.waze.com/live-map/directions?navigate=yes&to=ll.32.0112516%2C34.7604576
גבעת זאב,הדר יוסף,ספרד,"רימון הדר הגבעה  1
",31.781795,35.1652214,https://www.waze.com/live-map/directions?navigate=yes&to=ll.31.781795%2C35.1652214
גבעת זאב,כתר בנימין,עדות המזרח,"הלולב  5
",31.8622988,35.1717066,https://www.waze.com/live-map/directions?navigate=yes&to=ll.31.8622988%2C35.1717066
גבעת שמואל,אהבת אחים,עדות המזרח,"נימרובר 2
",32.077299,34.849206,https://www.waze.com/live-map/directions?navigate=yes&to=ll.32.077299%2C34.849206
גבעת שמואל,בית מדרש גבעת שמואל,עדות המזרח,"עוזי חיטמן 4
",32.0839316,34.8487629,https://www.waze.com/live-map/directions?navigate=yes&to=ll.32.0839316%2C34.8487629
גבעת שמואל,בית מתתיהו,ספרד,"העבודה 1
",32.0787644,34.8487948,https://www.waze.com/live-map/directions?navigate=yes&to=ll.32.0787644%2C34.8487948
גבעת שמואל,היכל רחמים,ספרד,"סמטת שי עגנון 6
",32.0788047,34.8558436,https://www.waze.com/live-map/directions?navigate=yes&to=ll.32.0788047%2C34.8558436
גבעת שמואל,המרכזי,ספרד,"בר אילן 21
",32.0666588,34.847264,https://www.waze.com/live-map/directions?navigate=yes&to=ll.32.0666588%2C34.847264
גבעת שמואל,הריף,מרוקו,"הרצל 4
",32.0747081,34.8491087,https://www.waze.com/live-map/directions?navigate=yes&to=ll.32.0747081%2C34.8491087
גבעת שמואל,משה ואהרון,ספרד,"הרימון 13
",32.0826805,34.8518753,https://www.waze.com/live-map/directions?navigate=yes&to=ll.32.0826805%2C34.8518753
גבעתים,אהבת ציון,תימן שאמי,"גונן 5
",32.0653064,34.80457260000001,https://www.waze.com/live-map/directions?navigate=yes&to=ll.32.0653064%2C34.80457260000001
גבעתים,אוהל ש״מ- ספרדי,עדות המזרח,"פועלי הרכבת 4
",32.0790934,34.8173848,https://www.waze.com/live-map/directions?navigate=yes&to=ll.32.0790934%2C34.8173848
גבעתים,בית אליהו,יוצאי לוב (טריפוליטאים),"רחוב גולומב  12
",32.0690838,34.8094638,https://www.waze.com/live-map/directions?navigate=yes&to=ll.32.0690838%2C34.8094638
גבעתים,היכל משה - החדש,עדות המזרח,"טייבר  29
",32.071694,34.8049366,https://www.waze.com/live-map/directions?navigate=yes&to=ll.32.071694%2C34.8049366
גבעתים,הרמה,ספרד,"גונן 3
",32.0654571,34.8045397,https://www.waze.com/live-map/directions?navigate=yes&to=ll.32.0654571%2C34.8045397
גבעתים,מרדכי ואסתר,עדות המזרח,"כצנלסון 30
",32.0750176,34.8051261,https://www.waze.com/live-map/directions?navigate=yes&to=ll.32.0750176%2C34.8051261
גבעתים,עין יעקב- בית הכנסת הגדול,ספרד,"שינקין 43
",32.0759557,34.8136089,https://www.waze.com/live-map/directions?navigate=yes&to=ll.32.0759557%2C34.8136089
גבעתים,קהילת הצעירים,ספרד,"טיבר 65
",32.071945,34.8081201,https://www.waze.com/live-map/directions?navigate=yes&to=ll.32.071945%2C34.8081201
גדרה,אהבת עולם,מרוקו,"האורן  7
",31.8060022,34.7889273,https://www.waze.com/live-map/directions?navigate=yes&to=ll.31.8060022%2C34.7889273
גדרה,איש מצליח,תוניס,"דרך ארץ 1
",31.8078513,34.7799483,https://www.waze.com/live-map/directions?navigate=yes&to=ll.31.8078513%2C34.7799483
גדרה,נוסח אחיד,ספרד,"פינס 2
",31.8168655,34.7773333,https://www.waze.com/live-map/directions?navigate=yes&to=ll.31.8168655%2C34.7773333
גדרה,סיני,תימן,"נפתלי 2
",31.8172748,34.7859029,https://www.waze.com/live-map/directions?navigate=yes&to=ll.31.8172748%2C34.7859029
גדרה,עץ חיים קטרה,תימן בלדי,"שבזי 1
",31.8207487,34.777411,https://www.waze.com/live-map/directions?navigate=yes&to=ll.31.8207487%2C34.777411
גדרה,שערי ירושלים,תוניס,"ראובן 15
",31.8196293,34.7799862,https://www.waze.com/live-map/directions?navigate=yes&to=ll.31.8196293%2C34.7799862
גדרה,שערי צדק,תימן בלדי,"יששכר 14
",31.8156851,34.7817485,https://www.waze.com/live-map/directions?navigate=yes&to=ll.31.8156851%2C34.7817485
גינות שומרון,בית הכנסת המרכזי - היכל רפאל,ספרד,"השקמה 31
",32.1688703,35.0831734,https://www.waze.com/live-map/directions?navigate=yes&to=ll.32.1688703%2C35.0831734
גמזו,אהל משה,עדות המזרח,"בית כנסת הספרדים 1
",40.46366700000001,-3.74922,https://www.waze.com/live-map/directions?navigate=yes&to=ll.40.46366700000001%2C-3.74922
גן יבנה,נאות אשכול,עדות המזרח,"יהודה עמיחי 12
",31.7953675,34.7074188,https://www.waze.com/live-map/directions?navigate=yes&to=ll.31.7953675%2C34.7074188
גן יבנה,נוה שלום,תימן בלדי,"אלי כהן 215
",31.7787232,34.7041616,https://www.waze.com/live-map/directions?navigate=yes&to=ll.31.7787232%2C34.7041616
גן יבנה,תהלה לדוד ,מרוקו,"העצמאות  13
",31.789476,34.715095,https://www.waze.com/live-map/directions?navigate=yes&to=ll.31.789476%2C34.715095
גן שמואל,מעל הזמן,עדות המזרח,"הנשיא  10
",32.452911,34.949311,https://www.waze.com/live-map/directions?navigate=yes&to=ll.32.452911%2C34.949311
גני תקוה,אהבת אחים,ספרד,"עין חנוך 8
",32.0614865,34.8681545,https://www.waze.com/live-map/directions?navigate=yes&to=ll.32.0614865%2C34.8681545
גני תקוה,ברכי נפשי,עדות המזרח,"עין חנוך 11
",32.0615332,34.8676926,https://www.waze.com/live-map/directions?navigate=yes&to=ll.32.0615332%2C34.8676926
גני תקוה,מרכז תורני נוה שלום,עדות המזרח,"סמטת הר נבו 7
",32.061156,34.87425770000001,https://www.waze.com/live-map/directions?navigate=yes&to=ll.32.061156%2C34.87425770000001
גני תקוה,מרכזי נוף סביון,ספרד,"עין חנוך 6
",32.0612181,34.8681847,https://www.waze.com/live-map/directions?navigate=yes&to=ll.32.0612181%2C34.8681847
גני תקוה,משיבת נפש,עדות המזרח,"סמטת התבור 8
",32.0593417,34.866917,https://www.waze.com/live-map/directions?navigate=yes&to=ll.32.0593417%2C34.866917
גני תקוה,צעירי ישראל,ספרד,"הגולן 70
",32.0558297,34.8712756,https://www.waze.com/live-map/directions?navigate=yes&to=ll.32.0558297%2C34.8712756
גני תקוה,שלום ורעות,ספרד,"עין חנוך 13
",32.061689,34.8680828,https://www.waze.com/live-map/directions?navigate=yes&to=ll.32.061689%2C34.8680828
גני תקוה,תורת חיים,מרוקו,"הרמה 5
",32.0604904,34.8697322,https://www.waze.com/live-map/directions?navigate=yes&to=ll.32.0604904%2C34.8697322
דימונה,אביר יעקב דימונה,מרוקו,"כובשי אילת   14
",31.0622546,35.03960259999999,https://www.waze.com/live-map/directions?navigate=yes&to=ll.31.0622546%2C35.03960259999999
דימונה,אליהו הנביא,עדות המזרח,"השומר  5
",31.069419,35.033363,https://www.waze.com/live-map/directions?navigate=yes&to=ll.31.069419%2C35.033363
דימונה,בית דוד,מרוקו,"ההגנה 3
",31.0731117,35.0295001,https://www.waze.com/live-map/directions?navigate=yes&to=ll.31.0731117%2C35.0295001
דימונה,זכור לאברהם,עדות המזרח,"היורה 6
",31.059792,35.031877,https://www.waze.com/live-map/directions?navigate=yes&to=ll.31.059792%2C35.031877
הוד השרון,אור הנצח,עדות המזרח,"מעייני 7
",32.1605071,34.9057318,https://www.waze.com/live-map/directions?navigate=yes&to=ll.32.1605071%2C34.9057318
הוד השרון,אור ישראל,ספרד,"משה שרת 37
",32.1622266,34.8881501,https://www.waze.com/live-map/directions?navigate=yes&to=ll.32.1622266%2C34.8881501
הוד השרון,הצריף,ספרד,"הרשות 2
",32.1590488,34.8945463,https://www.waze.com/live-map/directions?navigate=yes&to=ll.32.1590488%2C34.8945463
הוד השרון,הרמבם,תימן בלדי,"נצח ישראל  43
",32.1630988,34.9107603,https://www.waze.com/live-map/directions?navigate=yes&to=ll.32.1630988%2C34.9107603
הוד השרון,זכרון משה,ספרד,"שמעון הצדיק 37
",32.1368828,34.9017569,https://www.waze.com/live-map/directions?navigate=yes&to=ll.32.1368828%2C34.9017569
הוד השרון,מקדש מעט,עדות המזרח,"הגיבור 3
",32.149867,34.893993,https://www.waze.com/live-map/directions?navigate=yes&to=ll.32.149867%2C34.893993
הוד השרון,עש פגי ירון זל,עדות המזרח,"המגן 30
",32.1555417,34.9065819,https://www.waze.com/live-map/directions?navigate=yes&to=ll.32.1555417%2C34.9065819
הוד השרון,עץ חיים,תימן,"כנרת 6
",32.1583595,34.914135,https://www.waze.com/live-map/directions?navigate=yes&to=ll.32.1583595%2C34.914135
הוד השרון,שער השמיים,תימן שאמי,"שמעון הצדיק 37
",32.1368828,34.9017569,https://www.waze.com/live-map/directions?navigate=yes&to=ll.32.1368828%2C34.9017569
הרצליה,גאולת ישראל,עדות המזרח,"מולדת 14
",32.1679698,34.8594126,https://www.waze.com/live-map/directions?navigate=yes&to=ll.32.1679698%2C34.8594126
הרצליה,אבי דוד,תימן בלדי,"מובשוביץ 12
",32.1623315,34.85066980000001,https://www.waze.com/live-map/directions?navigate=yes&to=ll.32.1623315%2C34.85066980000001
הרצליה,אהבה ואחווה,ספרד,"כצלנסון 58
",32.1663378,34.8585205,https://www.waze.com/live-map/directions?navigate=yes&to=ll.32.1663378%2C34.8585205
הרצליה,אוהל משה,ספרד,"בן אליעזר 33
",32.1752556,34.8078315,https://www.waze.com/live-map/directions?navigate=yes&to=ll.32.1752556%2C34.8078315
הרצליה,אור לישראל,ספרד,"שחל 3
",32.162413,34.844675,https://www.waze.com/live-map/directions?navigate=yes&to=ll.32.162413%2C34.844675
הרצליה,ארם נהריים,עדות המזרח,"י.ל.פרץ 30
",32.1618898,34.856753,https://www.waze.com/live-map/directions?navigate=yes&to=ll.32.1618898%2C34.856753
הרצליה,בית דוד,תימן בלדי,"שרעבי  13
",32.184289,34.8371038,https://www.waze.com/live-map/directions?navigate=yes&to=ll.32.184289%2C34.8371038
הרצליה,בית הלוי,תימן,"הפרטיזנים 32 - נווה עמל
",32.1696435,34.8597849,https://www.waze.com/live-map/directions?navigate=yes&to=ll.32.1696435%2C34.8597849
הרצליה ב,בית יואל,ספרד,"פישמן 8
",32.171956,34.8153047,https://www.waze.com/live-map/directions?navigate=yes&to=ll.32.171956%2C34.8153047
הרצליה ב,בית שירנה,ספרד,"מדינת היהודים 18
",32.168109,34.8039205,https://www.waze.com/live-map/directions?navigate=yes&to=ll.32.168109%2C34.8039205
זכרון יעקב,אוהל רחל,מרוקו,"העליה 8
",32.5697919,34.9565283,https://www.waze.com/live-map/directions?navigate=yes&to=ll.32.5697919%2C34.9565283
זכרון יעקב,היכל רפאל,עדות המזרח,"הנדיב 6
",32.5741036,34.9528947,https://www.waze.com/live-map/directions?navigate=yes&to=ll.32.5741036%2C34.9528947
זכרון יעקב,מחנה ישראל,תימן,"תרעב 11
",32.5773209,34.95018460000001,https://www.waze.com/live-map/directions?navigate=yes&to=ll.32.5773209%2C34.95018460000001
חבצלת השרון,הגואל,עדות המזרח,"דרך הזיתים 5
",32.3622368,34.8603257,https://www.waze.com/live-map/directions?navigate=yes&to=ll.32.3622368%2C34.8603257
חדרה,אהבת רחמים,עדות המזרח,"הגיבורים 52
",32.434199,34.922412,https://www.waze.com/live-map/directions?navigate=yes&to=ll.32.434199%2C34.922412
חדרה,אוהל יהודה ורחל,מרוקו,"השקמה 7
",32.4160474,34.9539426,https://www.waze.com/live-map/directions?navigate=yes&to=ll.32.4160474%2C34.9539426
חדרה,בית הנשיא,ספרד,"הנשיא 82
",32.4377843,34.9264502,https://www.waze.com/live-map/directions?navigate=yes&to=ll.32.4377843%2C34.9264502
חדרה,בית יצחק,ספרד,"גדות  2
",32.4230439,34.9525805,https://www.waze.com/live-map/directions?navigate=yes&to=ll.32.4230439%2C34.9525805
חיבת ציון,רחוב הראשונים 22,ספרד,"דרור 1
",32.3980285,34.9121399,https://www.waze.com/live-map/directions?navigate=yes&to=ll.32.3980285%2C34.9121399
חיפה, שערי צדק הגליל,ספרד,"חסן שוקרי 18 - הדר
",32.8123817,34.9999782,https://www.waze.com/live-map/directions?navigate=yes&to=ll.32.8123817%2C34.9999782
חיפה,אבות ובנים,ספרד,"קלר 6
",32.802805,34.9832527,https://www.waze.com/live-map/directions?navigate=yes&to=ll.32.802805%2C34.9832527
חיפה,אביר יעקוב,ספרד,"ערד  9
",32.7929708,35.0201482,https://www.waze.com/live-map/directions?navigate=yes&to=ll.32.7929708%2C35.0201482
חיפה,אהבת ישראל,עדות המזרח,"הרותם 1
",32.8198587,34.956608,https://www.waze.com/live-map/directions?navigate=yes&to=ll.32.8198587%2C34.956608
חיפה,אוהב ישראל,ספרד," עבס 14
",32.8157426,34.9893663,https://www.waze.com/live-map/directions?navigate=yes&to=ll.32.8157426%2C34.9893663
חיפה,אוהל ברכה,ספרד,"שימקין 17
",32.7770629,34.9923183,https://www.waze.com/live-map/directions?navigate=yes&to=ll.32.7770629%2C34.9923183
חיפה,אליהו הנביא,ספרד,"סיני 16
",32.7876714,34.9877881,https://www.waze.com/live-map/directions?navigate=yes&to=ll.32.7876714%2C34.9877881
חיפה,אליהו הנביא,ספרד,"סטרומה 5
",32.8235125,34.9626744,https://www.waze.com/live-map/directions?navigate=yes&to=ll.32.8235125%2C34.9626744
חיפה,בית אל,ספרד,"התשעה 3
",32.790559,35.022672,https://www.waze.com/live-map/directions?navigate=yes&to=ll.32.790559%2C35.022672
חיפה,בית הכנסת האשכנזי רמות רמז,ספרד,"ברנר  13
",32.7800806,35.00644090000001,https://www.waze.com/live-map/directions?navigate=yes&to=ll.32.7800806%2C35.00644090000001
חמד,משכנות דן ,עדות המזרח,"שדרות העומר 107
",32.0177207,34.8417854,https://www.waze.com/live-map/directions?navigate=yes&to=ll.32.0177207%2C34.8417854
חצור הגלילית,קול יעקב של העדה הפרסית,עדות המזרח,"לוי אשכול 20
",32.979934,35.543032,https://www.waze.com/live-map/directions?navigate=yes&to=ll.32.979934%2C35.543032
חשמונאים,אהל מינה,עדות המזרח,"התאנה 5
",31.93260549999999,35.0264511,https://www.waze.com/live-map/directions?navigate=yes&to=ll.31.93260549999999%2C35.0264511
טבעון קרית טבעון,יהודה הנשיא,ספרד,"מורדכי 120
",32.7070174,35.1154638,https://www.waze.com/live-map/directions?navigate=yes&to=ll.32.7070174%2C35.1154638
טבריה,אוהל יוסף,עדות המזרח,"שיכון ג 539
",32.782719,35.508413,https://www.waze.com/live-map/directions?navigate=yes&to=ll.32.782719%2C35.508413
טבריה,אור ישראל,עדות המזרח,"שכון ג´ 535
",32.782719,35.508413,https://www.waze.com/live-map/directions?navigate=yes&to=ll.32.782719%2C35.508413
טבריה,היכל דוד,עדות המזרח,"שזר  1112
",32.781928,35.516092,https://www.waze.com/live-map/directions?navigate=yes&to=ll.32.781928%2C35.516092
טבריה,היכל רחמים,ספרד,"השלום 16
",32.78429810000001,35.5064138,https://www.waze.com/live-map/directions?navigate=yes&to=ll.32.78429810000001%2C35.5064138
טבריה,יד בנימין,תוניס,"הגליל 72
",32.7839038,35.542256,https://www.waze.com/live-map/directions?navigate=yes&to=ll.32.7839038%2C35.542256
טירת הכרמל,גואטה- הכולל,עדות המזרח,"רמבם 18
",32.7657468,34.9744154,https://www.waze.com/live-map/directions?navigate=yes&to=ll.32.7657468%2C34.9744154
טירת הכרמל,משכן אלירן,מרוקו,"ירושלים 1
",32.7549721,34.9702642,https://www.waze.com/live-map/directions?navigate=yes&to=ll.32.7549721%2C34.9702642
טירת הכרמל,עש חכם ברזני,ספרד,"הרב קוק 1
",32.7646573,34.9726322,https://www.waze.com/live-map/directions?navigate=yes&to=ll.32.7646573%2C34.9726322
טירת הכרמל,שיר למעלות,ספרד," הרב זרביב 23
",32.7680703,34.9746073,https://www.waze.com/live-map/directions?navigate=yes&to=ll.32.7680703%2C34.9746073
טירת הכרמל,שמן למאור,ספרד,"הרב ויינריב 31
",32.76022,34.971882,https://www.waze.com/live-map/directions?navigate=yes&to=ll.32.76022%2C34.971882
יבנה,אוהל אברהם,עדות המזרח,"התבור 2
",31.873155,34.7498008,https://www.waze.com/live-map/directions?navigate=yes&to=ll.31.873155%2C34.7498008
יבנה,אוהל אברהם ומשכן שמעון,עדות המזרח,"התבור  2
",31.873155,34.7498008,https://www.waze.com/live-map/directions?navigate=yes&to=ll.31.873155%2C34.7498008
יבנה,באבא סאלי,ספרד,"החרוב 17
",31.8792234,34.7361753,https://www.waze.com/live-map/directions?navigate=yes&to=ll.31.8792234%2C34.7361753
יבנה,דוד המלך,מרוקו,"הגלבוע 19
",31.8742976,34.7517725,https://www.waze.com/live-map/directions?navigate=yes&to=ll.31.8742976%2C34.7517725
יבנה,חבד יבנה ,ספרד,"הזמיר 1
",31.8750925,34.7423693,https://www.waze.com/live-map/directions?navigate=yes&to=ll.31.8750925%2C34.7423693
יבנה,חבקוק הנביא,ספרד,"הדקל 6
",31.8752759,34.7385868,https://www.waze.com/live-map/directions?navigate=yes&to=ll.31.8752759%2C34.7385868
יד בנימין,בית הכנסת המרכזי,ספרד,"צופית 5
",31.8012703,34.8231937,https://www.waze.com/live-map/directions?navigate=yes&to=ll.31.8012703%2C34.8231937
יד בנימין,שירת קטיף,עדות המזרח,"שחף 91
",31.8015981,34.8227559,https://www.waze.com/live-map/directions?navigate=yes&to=ll.31.8015981%2C34.8227559
יהוד,היכל אלעזר,ספרד,"יהודה לוי 46
",32.03147500000001,34.8913295,https://www.waze.com/live-map/directions?navigate=yes&to=ll.32.03147500000001%2C34.8913295
יהוד,אור אבנר,עדות המזרח,"משה דיין 11
",32.0354635,34.881049,https://www.waze.com/live-map/directions?navigate=yes&to=ll.32.0354635%2C34.881049
יהוד,אור לשבים,ספרד,"ויצמן 83
",32.0374446,34.89200040000001,https://www.waze.com/live-map/directions?navigate=yes&to=ll.32.0374446%2C34.89200040000001
יהוד,בית אל,ספרד,"הרצל  23
",32.0342346,34.8859177,https://www.waze.com/live-map/directions?navigate=yes&to=ll.32.0342346%2C34.8859177
יהוד,בית הכנסת מאיר,תימן,"בן  צבי ישי 1
",32.0326324,34.8885238,https://www.waze.com/live-map/directions?navigate=yes&to=ll.32.0326324%2C34.8885238
יהוד,הראל,תימן,"נורדאו 9
",32.0291328,34.8942415,https://www.waze.com/live-map/directions?navigate=yes&to=ll.32.0291328%2C34.8942415
יהוד,וינס,עדות המזרח,"וינס 1
",32.0340049,34.8859465,https://www.waze.com/live-map/directions?navigate=yes&to=ll.32.0340049%2C34.8859465
יהוד,ישורון,תימן,"קדושי מצרים  17
",32.0345558,34.889443,https://www.waze.com/live-map/directions?navigate=yes&to=ll.32.0345558%2C34.889443
יהוד,עולי בוכרה,עדות המזרח,"בן צבי  1
",32.0305682,34.8941598,https://www.waze.com/live-map/directions?navigate=yes&to=ll.32.0305682%2C34.8941598
יכיני,של זכריה רצון,תימן," 70
",31.481692,34.596566,https://www.waze.com/live-map/directions?navigate=yes&to=ll.31.481692%2C34.596566
יפו,(אהבה ואחוה (חזון נחום,עדות המזרח,"מגן אברהם 12
",32.0503554,34.7576849,https://www.waze.com/live-map/directions?navigate=yes&to=ll.32.0503554%2C34.7576849
יפו,אוהל אברהם,מרוקו,"רוסלאן 30
",32.0547827,34.7554362,https://www.waze.com/live-map/directions?navigate=yes&to=ll.32.0547827%2C34.7554362
יפו,אוהל אברהם שמואל,עדות המזרח,"אייזיק חריף 23
",32.0324772,34.7477718,https://www.waze.com/live-map/directions?navigate=yes&to=ll.32.0324772%2C34.7477718
יפו,בית אל,תימן בלדי,"בת עין  2
",32.041803,34.7565657,https://www.waze.com/live-map/directions?navigate=yes&to=ll.32.041803%2C34.7565657
יפו,בית הכנסת המרכזי זכרון קדושים,ספרד,"יפת 254
",32.0333255,34.7447225,https://www.waze.com/live-map/directions?navigate=yes&to=ll.32.0333255%2C34.7447225
יפו,בית הכנסת העתיק ביפו העתיקה,יוצאי לוב (טריפוליטאים),"דגים 2
",32.0852999,34.78176759999999,https://www.waze.com/live-map/directions?navigate=yes&to=ll.32.0852999%2C34.78176759999999
יפו,זכרון משה,מרוקו,"מיכאל אנג´לו 31
",32.0487584,34.7578133,https://www.waze.com/live-map/directions?navigate=yes&to=ll.32.0487584%2C34.7578133
יפו,עולי לוב,עדות המזרח,"חיננית 1
",32.0323775,34.7545162,https://www.waze.com/live-map/directions?navigate=yes&to=ll.32.0323775%2C34.7545162
יציץ,אוהל יעקב,יוצאי לוב (טריפוליטאים),"התאנה 5
",31.866772,34.86389,https://www.waze.com/live-map/directions?navigate=yes&to=ll.31.866772%2C34.86389
יקנעם,אחוות אחים,עדות המזרח,"המיצר 1
",32.6432741,35.0881934,https://www.waze.com/live-map/directions?navigate=yes&to=ll.32.6432741%2C35.0881934
יקנעם עילית,יחד שבטי ישראל,מרוקו,"אכזיב 17
",32.6377508,35.0887986,https://www.waze.com/live-map/directions?navigate=yes&to=ll.32.6377508%2C35.0887986
יקנעם עילית,מורשת אבות,תימן בלדי,"הצאלים 74
",32.6443679,35.0901784,https://www.waze.com/live-map/directions?navigate=yes&to=ll.32.6443679%2C35.0901784
יקנעם עילית,נתיב מאיר,מרוקו,"האקליפטוס 15
",32.637758,35.0810857,https://www.waze.com/live-map/directions?navigate=yes&to=ll.32.637758%2C35.0810857
ירושלים, בית אהרון,ספרד,"דרך החורש 90 רמות ב
",31.80928419999999,35.1939582,https://www.waze.com/live-map/directions?navigate=yes&to=ll.31.80928419999999%2C35.1939582
ירושלים,אהבה ואחוה,תימן בלדי,"שאולזון 18
",31.7903104,35.1738057,https://www.waze.com/live-map/directions?navigate=yes&to=ll.31.7903104%2C35.1738057
ירושלים,פאתי מזרח,ספרד,"דוד פדרמן 14
",31.8211739,35.2536155,https://www.waze.com/live-map/directions?navigate=yes&to=ll.31.8211739%2C35.2536155
ירושלים,אביר יעקב,מרוקו,"שמואל נתן  4
",31.7493281,35.1693191,https://www.waze.com/live-map/directions?navigate=yes&to=ll.31.7493281%2C35.1693191
ירושלים,אדר יהודה,מרוקו,"רינה ניקובה 5
",31.8165392,35.249177,https://www.waze.com/live-map/directions?navigate=yes&to=ll.31.8165392%2C35.249177
כפר יונה,״נווה אליהו״ ע״ש הרה״חג אליהו רבינא זצ״ל,ספרד,"העליה  35
",32.316007,34.9285064,https://www.waze.com/live-map/directions?navigate=yes&to=ll.32.316007%2C34.9285064
כפר יונה,קדושי אפריים,תימן שאמי,"קדושי 3454
",32.317719,34.933615,https://www.waze.com/live-map/directions?navigate=yes&to=ll.32.317719%2C34.933615
כפר סבא,אהבת שלום,עדות המזרח,"דניאל 3
",32.185987,34.936161,https://www.waze.com/live-map/directions?navigate=yes&to=ll.32.185987%2C34.936161
כפר סבא,אוהל יעקב ולאה,עדות המזרח,"הכרמל 70
",32.1766816,34.9146447,https://www.waze.com/live-map/directions?navigate=yes&to=ll.32.1766816%2C34.9146447
כפר סבא,אוהל ישראל,תימן שאמי,"כנפי נשרים 20
",32.1897676,34.9056477,https://www.waze.com/live-map/directions?navigate=yes&to=ll.32.1897676%2C34.9056477
כפר סבא,אוהל משה,ספרד,"ויצמן 122
",32.17495,34.9095129,https://www.waze.com/live-map/directions?navigate=yes&to=ll.32.17495%2C34.9095129
כפר סבא,אלי כהן,מרוקו,"ויצמן 181
",32.1728291,34.920726,https://www.waze.com/live-map/directions?navigate=yes&to=ll.32.1728291%2C34.920726
כפר סבא,בית אל,תימן בלדי,"הרב קוק - מעלה ליובאוויש 16
",32.182877,34.912051,https://www.waze.com/live-map/directions?navigate=yes&to=ll.32.182877%2C34.912051
כפר סבא,בית הלל,עדות המזרח,"חביבה רייך 7
",32.1785387,34.8930404,https://www.waze.com/live-map/directions?navigate=yes&to=ll.32.1785387%2C34.8930404
כפר סבא,בית יעקב,תימן שאמי,"בורוכוב 23
",32.1894215,34.900372,https://www.waze.com/live-map/directions?navigate=yes&to=ll.32.1894215%2C34.900372
כפר סבא,בית עזרא,ספרד,"משה דיין 9
",32.1746304,34.9196528,https://www.waze.com/live-map/directions?navigate=yes&to=ll.32.1746304%2C34.9196528
כרמיאל,אור-הרשש,עדות המזרח,"משעול חצב  34
",32.9039892,35.3023725,https://www.waze.com/live-map/directions?navigate=yes&to=ll.32.9039892%2C35.3023725
כרמיאל,אנרטק,עדות המזרח,"הנפח 8
",32.9213572,35.3198802,https://www.waze.com/live-map/directions?navigate=yes&to=ll.32.9213572%2C35.3198802
כרמיאל,בן איש חי,עדות המזרח,"הפרחים  52
",32.9041415,35.298817,https://www.waze.com/live-map/directions?navigate=yes&to=ll.32.9041415%2C35.298817
כרמיאל,הדר בן ציון,עדות המזרח,"בירנית 1
",32.909238,35.294256,https://www.waze.com/live-map/directions?navigate=yes&to=ll.32.909238%2C35.294256
כרמיאל,ירונו אחים,עדות המזרח,"ביכורים 27
",32.9153166,35.2746418,https://www.waze.com/live-map/directions?navigate=yes&to=ll.32.9153166%2C35.2746418
כרמיאל,משכן חי,ספרד,"אסיף    48
",32.91136950000001,35.2752672,https://www.waze.com/live-map/directions?navigate=yes&to=ll.32.91136950000001%2C35.2752672
כרמיאל,עץ חיים,מרוקו,"מצפה נוף 17 17
",32.9210087,35.2965626,https://www.waze.com/live-map/directions?navigate=yes&to=ll.32.9210087%2C35.2965626
לוד,תפארת אהרון,עדות המזרח,"אלי כהן 22
",31.9521534,34.8867227,https://www.waze.com/live-map/directions?navigate=yes&to=ll.31.9521534%2C34.8867227
לוד,אור החיים,עדות המזרח,"שד' שוורץ 1 לוד בתוך מפעל קרגל /במקלט אזהת הצפוני
",31.9499579,34.8851836,https://www.waze.com/live-map/directions?navigate=yes&to=ll.31.9499579%2C34.8851836
לוד,אשכול הכופר,עדות המזרח,"כצנלסון 4
",31.9548887,34.8944665,https://www.waze.com/live-map/directions?navigate=yes&to=ll.31.9548887%2C34.8944665
לוד,ביהכ עש חיים חטב והנופלים במלחמת יוכ,מרוקו,"שכונת רמט 6
",31.95080099999999,34.88367,https://www.waze.com/live-map/directions?navigate=yes&to=ll.31.95080099999999%2C34.88367
לוד,בית אהרון,עדות המזרח,"אלפעל 3
",31.9496372,34.8857049,https://www.waze.com/live-map/directions?navigate=yes&to=ll.31.9496372%2C34.8857049
לוד,בית ברוך,תוניס,"זבוטנסקי 5
",31.9456589,34.8876027,https://www.waze.com/live-map/directions?navigate=yes&to=ll.31.9456589%2C34.8876027
לוד,גבריאל המלאך,ספרד,"שלמה המלך 42
",31.9437897,34.8829781,https://www.waze.com/live-map/directions?navigate=yes&to=ll.31.9437897%2C34.8829781
מבשרת ירושלים,כל ישראל חברים,ספרד,"שדרות החושן 39
",31.8073194,35.1643654,https://www.waze.com/live-map/directions?navigate=yes&to=ll.31.8073194%2C35.1643654
מבשרת ירושלים,מורשת הראה,ספרד,"הברוש 70
",31.8019973,35.1591255,https://www.waze.com/live-map/directions?navigate=yes&to=ll.31.8019973%2C35.1591255
מבשרת ציון,אחדות ישראל,עדות המזרח,"הראשונים 8
",31.7931348,35.143111,https://www.waze.com/live-map/directions?navigate=yes&to=ll.31.7931348%2C35.143111
מבשרת ציון,בית הכנסת המרכזי חזון יחזקאל,עדות המזרח,"חרמון 1
",31.806119,35.14961,https://www.waze.com/live-map/directions?navigate=yes&to=ll.31.806119%2C35.14961
מבשרת ציון,כל ישראל חברים,ספרד,"שדרות החושן  39
",31.8073194,35.1643654,https://www.waze.com/live-map/directions?navigate=yes&to=ll.31.8073194%2C35.1643654
מבשרת ציון,כתר ציון,עדות המזרח,"האילנות 4
",31.791486,35.1499827,https://www.waze.com/live-map/directions?navigate=yes&to=ll.31.791486%2C35.1499827
מבשרת ציון,עמדי אריאל,עדות המזרח," מצפה הבירה 41
",31.7918806,35.1493272,https://www.waze.com/live-map/directions?navigate=yes&to=ll.31.7918806%2C35.1493272
מבשרת ציון,קרית חינוך,ספרד,"האורן  50
",31.7997391,35.1562257,https://www.waze.com/live-map/directions?navigate=yes&to=ll.31.7997391%2C35.1562257
מגדל העמק,אוהל יצחק הרב מימון,תוניס,"הרב בוסקילה 3
",32.680016,35.2302316,https://www.waze.com/live-map/directions?navigate=yes&to=ll.32.680016%2C35.2302316
מגדל העמק,האשכנזי המרכזי,ספרד," קדש 30
",32.6783366,35.23785,https://www.waze.com/live-map/directions?navigate=yes&to=ll.32.6783366%2C35.23785
מגדל העמק,נר יוסף,מרוקו," הנגב 4
",32.68201130000001,35.24415219999999,https://www.waze.com/live-map/directions?navigate=yes&to=ll.32.68201130000001%2C35.24415219999999
מגדל העמק,עולי בבל,עדות המזרח,"שלום עליכם 18
",32.677528,35.2377865,https://www.waze.com/live-map/directions?navigate=yes&to=ll.32.677528%2C35.2377865
מגדל העמק,רבי דוד ומשה,מרוקו," קדש 5
",32.6826404,35.2326591,https://www.waze.com/live-map/directions?navigate=yes&to=ll.32.6826404%2C35.2326591
מגדל העמק,שער שמעון אטיאס,מרוקו,"השוהם 8
",32.6798463,35.2458903,https://www.waze.com/live-map/directions?navigate=yes&to=ll.32.6798463%2C35.2458903
מגדל העמק,תורת אבות,עדות המזרח,"אביב  4
",32.6778114,35.2417497,https://www.waze.com/live-map/directions?navigate=yes&to=ll.32.6778114%2C35.2417497
מודיעין,אוהל רחל,מרוקו,"אבני החושן  24
",31.903313,34.9947558,https://www.waze.com/live-map/directions?navigate=yes&to=ll.31.903313%2C34.9947558
מודיעין,אחדות,ספרד,"אסתר המלכה 27
",31.8835219,35.0088252,https://www.waze.com/live-map/directions?navigate=yes&to=ll.31.8835219%2C35.0088252
מודיעין,אמלל שיר,תימן,"תכלת 11 אבני חן
",31.9016421,34.9998085,https://www.waze.com/live-map/directions?navigate=yes&to=ll.31.9016421%2C34.9998085
מודיעין,בית הכנסת קיפודן ספרדי,ספרד,"קיפודן 21 21
",31.9043052,35.0088055,https://www.waze.com/live-map/directions?navigate=yes&to=ll.31.9043052%2C35.0088055
מודיעין,בן פורת יוסף,עדות המזרח,"עמק האלה 40
",31.9129588,35.0093416,https://www.waze.com/live-map/directions?navigate=yes&to=ll.31.9129588%2C35.0093416
מודיעין,דביר מודיעין,עדות המזרח,"נחל פארן 31
",31.8948766,35.0169417,https://www.waze.com/live-map/directions?navigate=yes&to=ll.31.8948766%2C35.0169417
מודיעין,היכל נחום,תימן בלדי,"נחל זוהר  24
",31.892381,35.0075866,https://www.waze.com/live-map/directions?navigate=yes&to=ll.31.892381%2C35.0075866
מודיעין,היכל שמואל,עדות המזרח,"נחל תנינים 8
",31.8973805,35.0221477,https://www.waze.com/live-map/directions?navigate=yes&to=ll.31.8973805%2C35.0221477
מודיעין,ובחרת בחיים,עדות המזרח,"מיכה 1
",31.9135927,35.0022524,https://www.waze.com/live-map/directions?navigate=yes&to=ll.31.9135927%2C35.0022524
מודיעין עילית,אור יוסף,תימן," יהודה  הנשיא 51
",31.9401507,35.046306,https://www.waze.com/live-map/directions?navigate=yes&to=ll.31.9401507%2C35.046306
מודיעין עילית,בן איש חי,עדות המזרח,"חתם סופר  10
",31.9328327,35.0460396,https://www.waze.com/live-map/directions?navigate=yes&to=ll.31.9328327%2C35.0460396
מודיעין עילית,קהל חסידים,ספרד,"נתיבות שלום 6
",31.9268848,35.0477686,https://www.waze.com/live-map/directions?navigate=yes&to=ll.31.9268848%2C35.0477686
מטע,כדורי,ספרד,"כליל החורש 38
",31.7204201,35.0590448,https://www.waze.com/live-map/directions?navigate=yes&to=ll.31.7204201%2C35.0590448
מעלה אדומים,אהבת ישראל,מרוקו,"הדקל 1
",31.765444,35.2987526,https://www.waze.com/live-map/directions?navigate=yes&to=ll.31.765444%2C35.2987526
מעלה אדומים,המרכזי,מרוקו,"הנחלים 94
",31.7764069,35.2974025,https://www.waze.com/live-map/directions?navigate=yes&to=ll.31.7764069%2C35.2974025
מעלות תרשיחא,אליהו ומיכאל ,מרוקו,"הרצל  1
",33.0178804,35.2825873,https://www.waze.com/live-map/directions?navigate=yes&to=ll.33.0178804%2C35.2825873
מעלות תרשיחא,אוהל אברהם,עדות המזרח,"האיריס 18
",33.0090359,35.2830801,https://www.waze.com/live-map/directions?navigate=yes&to=ll.33.0090359%2C35.2830801
מעלות תרשיחא,החידא,עדות המזרח,"קורנית 25
",33.0132983,35.2907782,https://www.waze.com/live-map/directions?navigate=yes&to=ll.33.0132983%2C35.2907782
מעלות תרשיחא,יגאל ישראל - שכונת הזיתים,עדות המזרח,"דולב 2
",33.02807,35.2709685,https://www.waze.com/live-map/directions?navigate=yes&to=ll.33.02807%2C35.2709685
מצפה רמון,אחות דניאל ,עדות המזרח,"נחל רעף 8
",30.615318,34.79646779999999,https://www.waze.com/live-map/directions?navigate=yes&to=ll.30.615318%2C34.79646779999999
נהריה,אביר יעקב,ספרד,"שכונת ממשלתי
",33.0085361,35.0980514,https://www.waze.com/live-map/directions?navigate=yes&to=ll.33.0085361%2C35.0980514
נהריה,אברהם אבינו,ספרד,"השקד 29 - מול מגרשי ספורט
",32.98831210000001,35.0860564,https://www.waze.com/live-map/directions?navigate=yes&to=ll.32.98831210000001%2C35.0860564
נהריה,אברהם אבינו,ספרד,"שפרינצק 42 (בתוך הפארק)
",33.003419,35.101095,https://www.waze.com/live-map/directions?navigate=yes&to=ll.33.003419%2C35.101095
נהריה,אהבת שלום,ספרד,"קיבוץ גלויות 65
",33.0135826,35.1050218,https://www.waze.com/live-map/directions?navigate=yes&to=ll.33.0135826%2C35.1050218
נהריה,אוהל חיים,עדות המזרח,"נחמיה 10
",33.0009668,35.1042966,https://www.waze.com/live-map/directions?navigate=yes&to=ll.33.0009668%2C35.1042966
נהריה,אוצר התורה,ספרד,"החלוץ 34
",33.024077,35.1082721,https://www.waze.com/live-map/directions?navigate=yes&to=ll.33.024077%2C35.1082721
נהריה,אור חדש,ספרד,"יהודה המכבי 12
",33.0245161,35.1095088,https://www.waze.com/live-map/directions?navigate=yes&to=ll.33.0245161%2C35.1095088
נהריה,אלי כהן,ספרד,"קיבוץ גלויות 51
",33.0120744,35.1050757,https://www.waze.com/live-map/directions?navigate=yes&to=ll.33.0120744%2C35.1050757
נהריה,אמת,תוניס,"יהודה המכבי 22
",33.0258446,35.1075795,https://www.waze.com/live-map/directions?navigate=yes&to=ll.33.0258446%2C35.1075795
נהריה,בית יעקב,ספרד,"אחד העם 6
",33.0048622,35.0946266,https://www.waze.com/live-map/directions?navigate=yes&to=ll.33.0048622%2C35.0946266
נהריה,בית יעקב הפועל המזרחי,עדות המזרח,"המייסדים 24
",33.0093535,35.0962696,https://www.waze.com/live-map/directions?navigate=yes&to=ll.33.0093535%2C35.0962696
נהריה,בית מאיר,מרוקו,"הרצל 8
",33.015029,35.0961452,https://www.waze.com/live-map/directions?navigate=yes&to=ll.33.015029%2C35.0961452
נהריה,ברכת אסתר,עדות המזרח,"המייסדים 31
",33.0101473,35.0906062,https://www.waze.com/live-map/directions?navigate=yes&to=ll.33.0101473%2C35.0906062
נוה דניאל,מרכז רוחני ספרדי,עדות המזרח,"המוריה 200
",31.6785897,35.1436226,https://www.waze.com/live-map/directions?navigate=yes&to=ll.31.6785897%2C35.1436226
נוף אילון,זכור לאברהם שלב א,ספרד,"החשן 40
",31.8709508,34.9929666,https://www.waze.com/live-map/directions?navigate=yes&to=ll.31.8709508%2C34.9929666
נופים,נופים,עדות המזרח,"מרכז 1
",31.9521108,34.906551,https://www.waze.com/live-map/directions?navigate=yes&to=ll.31.9521108%2C34.906551
נחלים,ישיבת נחלים,ספרד,"דן 54
",32.0624251,34.914522,https://www.waze.com/live-map/directions?navigate=yes&to=ll.32.0624251%2C34.914522
ניר עציון,המרכזי,ספרד,"הכיכר 1
",32.699125,34.992526,https://www.waze.com/live-map/directions?navigate=yes&to=ll.32.699125%2C34.992526
נירית,נירית,ספרד,"מירון 137
",32.145452,34.987561,https://www.waze.com/live-map/directions?navigate=yes&to=ll.32.145452%2C34.987561
נס ציונה,בן איש חי,ספרד,"מכבי 4
",31.9266518,34.7951893,https://www.waze.com/live-map/directions?navigate=yes&to=ll.31.9266518%2C34.7951893
נס ציונה,בן פורת יוסף,ספרד,"השיטת 20
",31.9306375,34.790863,https://www.waze.com/live-map/directions?navigate=yes&to=ll.31.9306375%2C34.790863
נס ציונה,דרכי נועם,ספרד,"אהרון בוקסר 1
",31.9232051,34.7824467,https://www.waze.com/live-map/directions?navigate=yes&to=ll.31.9232051%2C34.7824467
נס ציונה,הגדול אנשי יושר,ספרד,"נחשון  7
",31.9365375,34.8068142,https://www.waze.com/live-map/directions?navigate=yes&to=ll.31.9365375%2C34.8068142
נס ציונה,חסידים,עדות המזרח,"גאולה  13
",31.9315994,34.810098,https://www.waze.com/live-map/directions?navigate=yes&to=ll.31.9315994%2C34.810098
נס ציונה,שבזי,תימן,"העצמאות 32
",31.9334428,34.8024118,https://www.waze.com/live-map/directions?navigate=yes&to=ll.31.9334428%2C34.8024118
נס ציונה,שכונת הפרוגרסיבים,ספרד,"בן גוריון  51
",31.9246192,34.8061596,https://www.waze.com/live-map/directions?navigate=yes&to=ll.31.9246192%2C34.8061596
נצרת עילית,אורות עילית,מרוקו,"השקמה  1
",32.6895898,35.3138035,https://www.waze.com/live-map/directions?navigate=yes&to=ll.32.6895898%2C35.3138035
נצרת עילית,בית הכנסת הספרדי המרכזי ברית שלום,מרוקו,"העליה 2
",32.6954252,35.316401,https://www.waze.com/live-map/directions?navigate=yes&to=ll.32.6954252%2C35.316401
נצרת עילית,ברבירו,מרוקו,"תבור 421
",32.7067044,35.3246132,https://www.waze.com/live-map/directions?navigate=yes&to=ll.32.7067044%2C35.3246132
נצרת עילית,עץ חיים,מרוקו,"הגפן  7
",32.6941483,35.3154179,https://www.waze.com/live-map/directions?navigate=yes&to=ll.32.6941483%2C35.3154179
נצרת עילית,שומר ישראל,עדות המזרח,"המלאכה 1
",32.701441,35.314156,https://www.waze.com/live-map/directions?navigate=yes&to=ll.32.701441%2C35.314156
נשר,אור יצחק,ספרד,"האלון 7
",32.7681491,35.0349898,https://www.waze.com/live-map/directions?navigate=yes&to=ll.32.7681491%2C35.0349898
נשר,גבעת נשר,מרוקו,"החלוצים 1
",32.762123,35.047091,https://www.waze.com/live-map/directions?navigate=yes&to=ll.32.762123%2C35.047091
נשר,הנוריות,ספרד,"הנוריות  13
",32.7686483,35.0392036,https://www.waze.com/live-map/directions?navigate=yes&to=ll.32.7686483%2C35.0392036
נשר,יד-לאחים,מרוקו,"מעלה הגיבורים 1
",32.7757949,35.0375061,https://www.waze.com/live-map/directions?navigate=yes&to=ll.32.7757949%2C35.0375061
נשר,משרדי חברת מאבל - מנחה בימות החול בלבד,עדות המזרח,"בר יהודה 52
",32.7774349,35.0390932,https://www.waze.com/live-map/directions?navigate=yes&to=ll.32.7774349%2C35.0390932
נשר,רשבי,מרוקו,"הרב בר מוחא 3
",32.77139,35.0450387,https://www.waze.com/live-map/directions?navigate=yes&to=ll.32.77139%2C35.0450387
נשר,תפילה לדוד,עדות המזרח,"עמוס 30
",32.7746311,35.0306721,https://www.waze.com/live-map/directions?navigate=yes&to=ll.32.7746311%2C35.0306721
נתיבות,אור החיים,עדות המזרח,"אור לציון 4
",31.4262963,34.5845768,https://www.waze.com/live-map/directions?navigate=yes&to=ll.31.4262963%2C34.5845768
נתיבות,בית יוסף כתר מרדכי,ספרד,"ירושלים 70 70
",31.4233028,34.5937997,https://www.waze.com/live-map/directions?navigate=yes&to=ll.31.4233028%2C34.5937997
נתיבות,בית מדרש ברסלב,עדות המזרח,"שבטי ישראל 147
",31.4226404,34.5947335,https://www.waze.com/live-map/directions?navigate=yes&to=ll.31.4226404%2C34.5947335
נתיבות,מאורות נתן,עדות המזרח,"בן גוריון 6
",31.4267714,34.5918971,https://www.waze.com/live-map/directions?navigate=yes&to=ll.31.4267714%2C34.5918971
נתיבות,משכן שי חיים,עדות המזרח,"הרב צבאן 7
",31.4162498,34.5813169,https://www.waze.com/live-map/directions?navigate=yes&to=ll.31.4162498%2C34.5813169
נתיבות,משכן שלמה,תוניס,"המשחררים 1
",31.4206751,34.580644,https://www.waze.com/live-map/directions?navigate=yes&to=ll.31.4206751%2C34.580644
נתיבות,משכן ששון,עדות המזרח,"הצאלה 22
",31.42553939999999,34.5790219,https://www.waze.com/live-map/directions?navigate=yes&to=ll.31.42553939999999%2C34.5790219
נתניה,הרחמן,עדות המזרח,"קהילת צפת 5
",32.3052218,34.8444589,https://www.waze.com/live-map/directions?navigate=yes&to=ll.32.3052218%2C34.8444589
נתניה,´ביתא ישראל,עדות המזרח,"שיפר 8
",32.2809747,34.8482267,https://www.waze.com/live-map/directions?navigate=yes&to=ll.32.2809747%2C34.8482267
נתניה,אבות ובנים,עדות המזרח,"יבנה 6
",32.321458,34.853196,https://www.waze.com/live-map/directions?navigate=yes&to=ll.32.321458%2C34.853196
נתניה,אגודת אחים,ספרד,"ז'בוטינסקי 45
",32.3202031,34.8484364,https://www.waze.com/live-map/directions?navigate=yes&to=ll.32.3202031%2C34.8484364
נתניה,אהבת שלום,מרוקו,"איזיק רמבה 6
",32.3171612,34.8538142,https://www.waze.com/live-map/directions?navigate=yes&to=ll.32.3171612%2C34.8538142
נתניה,אהל יעקב,ספרד,"ראשון לציון  32
",32.3265056,34.8499685,https://www.waze.com/live-map/directions?navigate=yes&to=ll.32.3265056%2C34.8499685
נתניה,אוהל אברהם ויוסף,תימן,"נוה שלום  18
",32.3473643,34.8575743,https://www.waze.com/live-map/directions?navigate=yes&to=ll.32.3473643%2C34.8575743
נתניה,אוהל דניאל,מרוקו,"גד מכנס 28
",32.3257082,34.8494362,https://www.waze.com/live-map/directions?navigate=yes&to=ll.32.3257082%2C34.8494362
נתניה,אוהל חנין,עדות המזרח,"רדק  1
",32.3172044,34.8578706,https://www.waze.com/live-map/directions?navigate=yes&to=ll.32.3172044%2C34.8578706
נתניה,אוהל יצחק,ספרד,"חטיבת הראל  10
",32.3022101,34.8476713,https://www.waze.com/live-map/directions?navigate=yes&to=ll.32.3022101%2C34.8476713
נתניה,אוהל משה,תימן,"חתם סופר  4
",32.3121361,34.8567903,https://www.waze.com/live-map/directions?navigate=yes&to=ll.32.3121361%2C34.8567903
נתניה,אוהל עמרם,מרוקו,"שיטרית 22
",32.3278608,34.8503512,https://www.waze.com/live-map/directions?navigate=yes&to=ll.32.3278608%2C34.8503512
עומר,ישראל הצעיר,ספרד,"הדס 1
",31.2617629,34.8491398,https://www.waze.com/live-map/directions?navigate=yes&to=ll.31.2617629%2C34.8491398
עומר,שבטי ישראל,עדות המזרח,"ליבנה 1
",31.258948,34.845041,https://www.waze.com/live-map/directions?navigate=yes&to=ll.31.258948%2C34.845041
עין הוד,נווה ציון,תימן,"פארק המדע 770
",32.700292,34.982716,https://www.waze.com/live-map/directions?navigate=yes&to=ll.32.700292%2C34.982716
עכו, רז התורה ותקוות דוד,עדות המזרח,"הנדיב 1
",32.9283244,35.0949939,https://www.waze.com/live-map/directions?navigate=yes&to=ll.32.9283244%2C35.0949939
עכו,אהבה ואחווה,מרוקו,"רמחל 20
",32.9235916,35.0944055,https://www.waze.com/live-map/directions?navigate=yes&to=ll.32.9235916%2C35.0944055
עכו,האשכנזי המרכזי,ספרד,"ז´בוטינסקי 26
",32.9310956,35.0727792,https://www.waze.com/live-map/directions?navigate=yes&to=ll.32.9310956%2C35.0727792
עכו,ישיבת ההסדר,ספרד,"דושינצקי 1
",32.9323957,35.0877539,https://www.waze.com/live-map/directions?navigate=yes&to=ll.32.9323957%2C35.0877539
עכו,כולל אברכים+בית כנסת תפילה לדוד,מרוקו,"גיבורי סיני עכו 34
",32.9312032,35.0769987,https://www.waze.com/live-map/directions?navigate=yes&to=ll.32.9312032%2C35.0769987
עכו,לעולי הקווקז,ספרד,"הס 11
",32.9235753,35.0936051,https://www.waze.com/live-map/directions?navigate=yes&to=ll.32.9235753%2C35.0936051
עכו,מרום ציון,מרוקו,"אחד העם 19
",32.9358816,35.0917604,https://www.waze.com/live-map/directions?navigate=yes&to=ll.32.9358816%2C35.0917604
עכו,על-שם שמעון לוזון,יוצאי לוב (טריפוליטאים),"יהודה הלוי 26
",32.9304497,35.093524,https://www.waze.com/live-map/directions?navigate=yes&to=ll.32.9304497%2C35.093524
עלי,משכן עלי,ספרד,"הנורית 2
",32.0694824,35.2630015,https://www.waze.com/live-map/directions?navigate=yes&to=ll.32.0694824%2C35.2630015
עפולה,בית יעקבמיוצאי טוניס,תוניס,"הקישון  1
",32.6110569,35.2796571,https://www.waze.com/live-map/directions?navigate=yes&to=ll.32.6110569%2C35.2796571
עפולה,אהל ר´ יוסף,ספרד,"בציר 3
",32.6117107,35.2963397,https://www.waze.com/live-map/directions?navigate=yes&to=ll.32.6117107%2C35.2963397
עפולה,אחוות אחים,תימן שאמי,"שיכון גאולים
",32.610132,35.2788893,https://www.waze.com/live-map/directions?navigate=yes&to=ll.32.610132%2C35.2788893
עפולה,אחוות אחים,תימן שאמי,"הקישון 11
",32.6104618,35.2785961,https://www.waze.com/live-map/directions?navigate=yes&to=ll.32.6104618%2C35.2785961
עפולה,בית ישראל עץ חיים,תימן בלדי,"הסוכנות היהודית  119
",32.6134144,35.2779284,https://www.waze.com/live-map/directions?navigate=yes&to=ll.32.6134144%2C35.2779284
עפולה,היכל אברהם - המרכזי הספרדי,עדות המזרח,"יהושע חנקין 90
",32.6101112,35.2807065,https://www.waze.com/live-map/directions?navigate=yes&to=ll.32.6101112%2C35.2807065
עפולה,היכל השבעה,עדות המזרח,"האלה 17
",32.644615,35.338858,https://www.waze.com/live-map/directions?navigate=yes&to=ll.32.644615%2C35.338858
עץ אפרים,הוד והדר,ספרד,"ברוש 12
",32.119403,35.046367,https://www.waze.com/live-map/directions?navigate=yes&to=ll.32.119403%2C35.046367
ערד,בית רחמים,עדות המזרח,"שמעון 42
",31.2580738,35.2058086,https://www.waze.com/live-map/directions?navigate=yes&to=ll.31.2580738%2C35.2058086
ערד,השחר,ספרד,"אחווה 15
",31.2597472,35.2206592,https://www.waze.com/live-map/directions?navigate=yes&to=ll.31.2597472%2C35.2206592
ערד,שובה ישראל שכונת גבים,עדות המזרח," יובל  40
",31.261447,35.214862,https://www.waze.com/live-map/directions?navigate=yes&to=ll.31.261447%2C35.214862
פרדס חנה כרכור,אור ציון,תימן שאמי,"יוסף קארו / קרן היסוד 1
",32.477341,34.981934,https://www.waze.com/live-map/directions?navigate=yes&to=ll.32.477341%2C34.981934
פרדסיה,נר לישראל,תימן שאמי,"שבזי 2
",32.3025556,34.911394,https://www.waze.com/live-map/directions?navigate=yes&to=ll.32.3025556%2C34.911394
פתח תקוה, דוד ושלמה,תימן שאמי,"נורדאו 21
",32.0870851,34.8851327,https://www.waze.com/live-map/directions?navigate=yes&to=ll.32.0870851%2C34.8851327
פתח תקוה,אמרי יוסף,עדות המזרח,"דובנוב 8
",32.0895077,34.8768361,https://www.waze.com/live-map/directions?navigate=yes&to=ll.32.0895077%2C34.8768361
פתח תקוה,אהבת אחים,עדות המזרח,"שמואל הנגיד 4
",32.0993483,34.9001919,https://www.waze.com/live-map/directions?navigate=yes&to=ll.32.0993483%2C34.9001919
פתח תקוה,אוהל אברהם (שעי בית אבות רקנאטי),עדות המזרח,"אינשטיין 23
",32.0903505,34.8518753,https://www.waze.com/live-map/directions?navigate=yes&to=ll.32.0903505%2C34.8518753
פתח תקוה,אוהל יוסף,תימן בלדי,"דוד רמז 52
",32.0857335,34.9044337,https://www.waze.com/live-map/directions?navigate=yes&to=ll.32.0857335%2C34.9044337
פתח תקוה,אוהל יצחק,ספרד,"יד הבנים 66
",32.071469,34.87657799999999,https://www.waze.com/live-map/directions?navigate=yes&to=ll.32.071469%2C34.87657799999999
פתח תקוה,אוהל משה,עדות המזרח,"מזאה 3
",32.0914889,34.8497749,https://www.waze.com/live-map/directions?navigate=yes&to=ll.32.0914889%2C34.8497749
פתח תקוה,אוהל שלום,תימן שאמי,"וינצקי 7
",32.084041,34.887762,https://www.waze.com/live-map/directions?navigate=yes&to=ll.32.084041%2C34.887762
פתח תקוה,אולם אירועים,תימן שאמי,"שלומציון  14
",32.1022234,34.8991609,https://www.waze.com/live-map/directions?navigate=yes&to=ll.32.1022234%2C34.8991609
צור הדסה,בית הכנסת הר כתרון,עדות המזרח,"הר כתרון 1
",31.7195524,35.089953,https://www.waze.com/live-map/directions?navigate=yes&to=ll.31.7195524%2C35.089953
צפת,בית אהבה ותפילה,ספרד,"ירושלים 77
",32.9669596,35.4945017,https://www.waze.com/live-map/directions?navigate=yes&to=ll.32.9669596%2C35.4945017
קדימה,אוהל משה וזכריה,ספרד,"הציפורים 10
",32.2677577,34.9156431,https://www.waze.com/live-map/directions?navigate=yes&to=ll.32.2677577%2C34.9156431
קדימה,זכור לאברהם,מרוקו,"מג 1
",32.2715007,34.9128653,https://www.waze.com/live-map/directions?navigate=yes&to=ll.32.2715007%2C34.9128653
קדרון,קדרון,ספרד,"הזית 1
",31.8150964,34.8057442,https://www.waze.com/live-map/directions?navigate=yes&to=ll.31.8150964%2C34.8057442
קצרין,אדיר במרום,עדות המזרח,"מגדל  6
",32.9952245,35.6812402,https://www.waze.com/live-map/directions?navigate=yes&to=ll.32.9952245%2C35.6812402
קצרין,תאיר שבת אחים,תימן בלדי,"זויתן 71
",32.9918163,35.682081,https://www.waze.com/live-map/directions?navigate=yes&to=ll.32.9918163%2C35.682081
קרית אונו,אור ציון,עדות המזרח,"הרצל 34
",32.0650366,34.8525703,https://www.waze.com/live-map/directions?navigate=yes&to=ll.32.0650366%2C34.8525703
קרית אונו,אמונה ודעת,תימן בלדי,"חנה סנש 17
",32.0657609,34.8553731,https://www.waze.com/live-map/directions?navigate=yes&to=ll.32.0657609%2C34.8553731
קרית אונו,בית הכנסת הגדול קיראון,ספרד,"הגפן  14
",32.0539993,34.8608085,https://www.waze.com/live-map/directions?navigate=yes&to=ll.32.0539993%2C34.8608085
קרית אונו,המרכזי,ספרד,"וינגייט 22
",32.0621487,34.853837,https://www.waze.com/live-map/directions?navigate=yes&to=ll.32.0621487%2C34.853837
קרית אונו,יד הרמבם,תימן בלדי,"לוס אנג´לס  28
",32.0636412,34.8601963,https://www.waze.com/live-map/directions?navigate=yes&to=ll.32.0636412%2C34.8601963
קרית אונו,עדת ישורון,עדות המזרח,"ירמיהו  3
",32.05939850000001,34.86624390000001,https://www.waze.com/live-map/directions?navigate=yes&to=ll.32.05939850000001%2C34.86624390000001
קרית אונו,שילה,ספרד,"פנקס 38
",32.0638365,34.85077,https://www.waze.com/live-map/directions?navigate=yes&to=ll.32.0638365%2C34.85077
קרית אונו,שערי צדק,ספרד,"הגפן 14
",32.0539993,34.8608085,https://www.waze.com/live-map/directions?navigate=yes&to=ll.32.0539993%2C34.8608085
קרית ארבע,כינור דוד,תימן,"יהושע בן נון 15
",31.528041,35.116625,https://www.waze.com/live-map/directions?navigate=yes&to=ll.31.528041%2C35.116625
קרית ארבע,עץ חיים,תימן בלדי,"בתלמוד תורה חברון
",31.529326,35.115625,https://www.waze.com/live-map/directions?navigate=yes&to=ll.31.529326%2C35.115625
קרית אתא,אוהל יצחק,מרוקו,"שלום עליכם  1
",32.8080476,35.1033954,https://www.waze.com/live-map/directions?navigate=yes&to=ll.32.8080476%2C35.1033954
קרית אתא,אור החיים,ספרד,"בית וגן 9
",32.7994901,35.1043213,https://www.waze.com/live-map/directions?navigate=yes&to=ll.32.7994901%2C35.1043213
קרית אתא,איפרגן,מרוקו,"פרישמן 19
",32.8096946,35.1007028,https://www.waze.com/live-map/directions?navigate=yes&to=ll.32.8096946%2C35.1007028
קרית אתא,אליהו הנביא לעולי אשור,עדות המזרח,"סוקולוב 57
",32.812761,35.10628,https://www.waze.com/live-map/directions?navigate=yes&to=ll.32.812761%2C35.10628
קרית אתא,אליהו התשבי,עדות המזרח,"יוספטל 10
",32.8167813,35.11314790000001,https://www.waze.com/live-map/directions?navigate=yes&to=ll.32.8167813%2C35.11314790000001
קרית אתא,בית אל,עדות המזרח,"הוגו מולר 48
",32.8131802,35.1100018,https://www.waze.com/live-map/directions?navigate=yes&to=ll.32.8131802%2C35.1100018
קרית אתא,בית רבנו ע´´ש רבי נחמן מברסלב,עדות המזרח,"העצמאות  10
",32.7996981,35.1030004,https://www.waze.com/live-map/directions?navigate=yes&to=ll.32.7996981%2C35.1030004
קרית אתא,במעלות הגיבורים,ספרד,"המייסדים 9
",32.8048331,35.1057091,https://www.waze.com/live-map/directions?navigate=yes&to=ll.32.8048331%2C35.1057091
קרית אתא,היכל שלמה,ספרד,"יהודה הלוי 7
",32.8033201,35.1018459,https://www.waze.com/live-map/directions?navigate=yes&to=ll.32.8033201%2C35.1018459
קרית ביאליק,אביר יעקב,מרוקו,"חרמון 1
",32.8160739,35.0788429,https://www.waze.com/live-map/directions?navigate=yes&to=ll.32.8160739%2C35.0788429
קרית ביאליק,ביכנ עש רבי עקיבא (מקלט,מרוקו,"עצמאות  13
",32.841208,35.0910405,https://www.waze.com/live-map/directions?navigate=yes&to=ll.32.841208%2C35.0910405
קרית ביאליק,בית משה והתקווה,ספרד,"הפטל  12
",32.841196,35.0951611,https://www.waze.com/live-map/directions?navigate=yes&to=ll.32.841196%2C35.0951611
קרית ביאליק,דודאי ראובן,ספרד,"העצמאות 13
",32.841208,35.0910405,https://www.waze.com/live-map/directions?navigate=yes&to=ll.32.841208%2C35.0910405
קרית ביאליק,נחלת אבות,עדות המזרח,"הפלמח 10
",32.83681,35.0863841,https://www.waze.com/live-map/directions?navigate=yes&to=ll.32.83681%2C35.0863841
קרית ביאליק,שבת אחים,ספרד,"העלייה 1
",32.8557715,35.0958058,https://www.waze.com/live-map/directions?navigate=yes&to=ll.32.8557715%2C35.0958058
קרית גת,(רבי דוד הלוי - דרע (גוזלן,מרוקו,"המרגלית  60
",31.6089318,34.7645325,https://www.waze.com/live-map/directions?navigate=yes&to=ll.31.6089318%2C34.7645325
קרית גת,אור אבנר,עדות המזרח," עין עקרבים 6
",31.6012098,34.7601366,https://www.waze.com/live-map/directions?navigate=yes&to=ll.31.6012098%2C34.7601366
קרית גת,בית הכנסת המרכזי כרמי גת,עדות המזרח,"נופך 2
",31.6234082,34.7737616,https://www.waze.com/live-map/directions?navigate=yes&to=ll.31.6234082%2C34.7737616
קרית גת,גרוס,עדות המזרח,"אהוד בן גרא  3
",31.6147761,34.7645053,https://www.waze.com/live-map/directions?navigate=yes&to=ll.31.6147761%2C34.7645053
קרית חיים,המרכזי הספרדי - בית אל,עדות המזרח,"הראשונים 108
",32.8290376,35.0688316,https://www.waze.com/live-map/directions?navigate=yes&to=ll.32.8290376%2C35.0688316
קרית חיים,משמרת צעירה,ספרד,"שפירא 23
",32.8340986,35.0667691,https://www.waze.com/live-map/directions?navigate=yes&to=ll.32.8340986%2C35.0667691
קרית טבעון,בית יעקב,מרוקו,"גורדון 3
",32.7058228,35.1245961,https://www.waze.com/live-map/directions?navigate=yes&to=ll.32.7058228%2C35.1245961
קרית טבעון,בית שערים,ספרד," זבולון 9
",32.7122046,35.1235791,https://www.waze.com/live-map/directions?navigate=yes&to=ll.32.7122046%2C35.1235791
קרית טבעון,הלל,ספרד,"יזרעאל 2
",32.7093628,35.128808,https://www.waze.com/live-map/directions?navigate=yes&to=ll.32.7093628%2C35.128808
קרית טבעון,ספרדי,עדות המזרח,"שרת 3
",32.7067615,35.1264942,https://www.waze.com/live-map/directions?navigate=yes&to=ll.32.7067615%2C35.1264942
קרית ים,- בית כנסת לצעירים בני עקיבא משכן דוד,ספרד,"אשר 1
",32.848704,35.067738,https://www.waze.com/live-map/directions?navigate=yes&to=ll.32.848704%2C35.067738
קרית ים,אביר יעקוב,ספרד,"אילנות 1
",32.8599595,35.0835112,https://www.waze.com/live-map/directions?navigate=yes&to=ll.32.8599595%2C35.0835112
קרית ים,אליהו הנביא,מרוקו,"יהודה הלוי 16
",32.8521497,35.0733298,https://www.waze.com/live-map/directions?navigate=yes&to=ll.32.8521497%2C35.0733298
קרית ים,היכל נתנאל,ספרד,"יהודה הלוי 12
",32.8514723,35.0729468,https://www.waze.com/live-map/directions?navigate=yes&to=ll.32.8514723%2C35.0729468
קרית ים,יעקוב ללשיוילי,עדות המזרח,"ספיר 25
",32.8433826,35.0604953,https://www.waze.com/live-map/directions?navigate=yes&to=ll.32.8433826%2C35.0604953
קרית ים,מגן אברהם,ספרד,"תבור 13
",32.8552649,35.0822195,https://www.waze.com/live-map/directions?navigate=yes&to=ll.32.8552649%2C35.0822195
קרית ים,משכן דוד,ספרד,"אשר 1
",32.848704,35.067738,https://www.waze.com/live-map/directions?navigate=yes&to=ll.32.848704%2C35.067738
קרית ים,עמותת תפארת ישראל,ספרד,"הרברט להיימן  14
",32.8481235,35.068432,https://www.waze.com/live-map/directions?navigate=yes&to=ll.32.8481235%2C35.068432
קרית ים,שערי משה,ספרד,"להיימן 15
",32.8486224,35.0691411,https://www.waze.com/live-map/directions?navigate=yes&to=ll.32.8486224%2C35.0691411
קרית ים,תהילה לדוד,מרוקו,"הרצל  65
",32.8391914,35.066237,https://www.waze.com/live-map/directions?navigate=yes&to=ll.32.8391914%2C35.066237
קרית ים,תלמוד תורה,תימן,"החשמונאים  6
",32.8497876,35.0727823,https://www.waze.com/live-map/directions?navigate=yes&to=ll.32.8497876%2C35.0727823
קרית מוצקין,אהבת ישראל,מרוקו,"חיבת ציון  2
",32.84161,35.079845,https://www.waze.com/live-map/directions?navigate=yes&to=ll.32.84161%2C35.079845
קרית מוצקין,אש התורה שלי,עדות המזרח,"חנה סנש - נתיב העליה 6
",32.8323028,35.0771617,https://www.waze.com/live-map/directions?navigate=yes&to=ll.32.8323028%2C35.0771617
קרית מוצקין,בית הכנסת אשכנזי,ספרד,"ציגל 22
",32.8407868,35.0842238,https://www.waze.com/live-map/directions?navigate=yes&to=ll.32.8407868%2C35.0842238
קרית מוצקין,בית מנחם,ספרד,"בן צבי 6
",32.85383410000001,35.0895879,https://www.waze.com/live-map/directions?navigate=yes&to=ll.32.85383410000001%2C35.0895879
קרית מוצקין,גלית,ספרד,"ציגל 22
",32.8407868,35.0842238,https://www.waze.com/live-map/directions?navigate=yes&to=ll.32.8407868%2C35.0842238
קרית מוצקין,הלווים,מרוקו,"דקר 72א
",32.8461948,35.0890687,https://www.waze.com/live-map/directions?navigate=yes&to=ll.32.8461948%2C35.0890687
קרית מלאכי,גאולת ישראל,עדות המזרח,"שדרות הרב ניסים 10
",31.7337006,34.7391615,https://www.waze.com/live-map/directions?navigate=yes&to=ll.31.7337006%2C34.7391615
קרית מלאכי,לעולי בבל הבן איש חי,עדות המזרח,"הגליל 4
",31.731234,34.748152,https://www.waze.com/live-map/directions?navigate=yes&to=ll.31.731234%2C34.748152
קרית עקרון,דרכי נועם,תימן,"שלמה בן יוסף  23 23
",31.8587816,34.827134,https://www.waze.com/live-map/directions?navigate=yes&to=ll.31.8587816%2C34.827134
קרית עקרון,שערי צדק,תימן,"השקד  4
",31.8568144,34.82759679999999,https://www.waze.com/live-map/directions?navigate=yes&to=ll.31.8568144%2C34.82759679999999
קרית עקרון,תפארת יוסף,עדות המזרח,"דרך ירושלים 3
",31.8602743,34.82135239999999,https://www.waze.com/live-map/directions?navigate=yes&to=ll.31.8602743%2C34.82135239999999
קרית שמואל,אליקים - אהרון הראה,ספרד,"הראה 10
",32.0836785,34.8170877,https://www.waze.com/live-map/directions?navigate=yes&to=ll.32.0836785%2C34.8170877
קרית שמואל,בית הכנסת האשכנזי - הרומנים,ספרד,"משה חיים שפירא 20
",32.8391712,35.0688189,https://www.waze.com/live-map/directions?navigate=yes&to=ll.32.8391712%2C35.0688189
קרית שמואל,ישיבה הרמה,ספרד,"קדושי השואה 13
",32.8411088,35.0699471,https://www.waze.com/live-map/directions?navigate=yes&to=ll.32.8411088%2C35.0699471
קרית שמונה,אוהל יעקב,מרוקו,"דן 14
",33.2101527,35.5667178,https://www.waze.com/live-map/directions?navigate=yes&to=ll.33.2101527%2C35.5667178
קרית שמונה,אור תורה,תוניס,"הרצל 26
",33.2097158,35.5675164,https://www.waze.com/live-map/directions?navigate=yes&to=ll.33.2097158%2C35.5675164
קרית שמונה,ברסלב,עדות המזרח,"הנשיא 7
",33.2206826,35.576686,https://www.waze.com/live-map/directions?navigate=yes&to=ll.33.2206826%2C35.576686
קרית שמונה,הכנסת אורחים,ספרד,"טרומפלדור 34
",33.2070036,35.5704539,https://www.waze.com/live-map/directions?navigate=yes&to=ll.33.2070036%2C35.5704539
קרית שמונה,יד לאחים,עדות המזרח,"ביאליק 27
",32.0816804,34.8145929,https://www.waze.com/live-map/directions?navigate=yes&to=ll.32.0816804%2C34.8145929
קרית שמונה,יד לבנים,עדות המזרח,"הרצל 39
",33.2060259,35.56780639999999,https://www.waze.com/live-map/directions?navigate=yes&to=ll.33.2060259%2C35.56780639999999
קרית שמונה,ישיבת ההסדר,ספרד,"הרב הרצוג 10
",33.2040477,35.5636324,https://www.waze.com/live-map/directions?navigate=yes&to=ll.33.2040477%2C35.5636324
קרני שומרון,תורת אבות,תימן," נווה מנחם-כלי שיר 0
",32.1706501,35.1085839,https://www.waze.com/live-map/directions?navigate=yes&to=ll.32.1706501%2C35.1085839
ראש העין,היכל יד ושם,תימן בלדי,"גלוסקא 2
",32.0991909,34.9407016,https://www.waze.com/live-map/directions?navigate=yes&to=ll.32.0991909%2C34.9407016
ראש העין,אהבת אחים,תימן שאמי,"גלוסקא 1
",32.0992399,34.9409509,https://www.waze.com/live-map/directions?navigate=yes&to=ll.32.0992399%2C34.9409509
ראש העין,אהבת ישראל,ספרד,"יפה ירקוני 11
",32.0858717,34.97427280000001,https://www.waze.com/live-map/directions?navigate=yes&to=ll.32.0858717%2C34.97427280000001
ראש העין,אוהל משה ועמנואל,תימן בלדי,"דוד המלך 50
",32.095071,34.951152,https://www.waze.com/live-map/directions?navigate=yes&to=ll.32.095071%2C34.951152
ראש העין,אחוות אחים,תימן שאמי,"הרשש 0
",32.100215,34.9487471,https://www.waze.com/live-map/directions?navigate=yes&to=ll.32.100215%2C34.9487471
ראש העין,אמת ושלום,תימן שאמי,"חפץ חיים 6
",32.1005592,34.9419441,https://www.waze.com/live-map/directions?navigate=yes&to=ll.32.1005592%2C34.9419441
ראש העין,אפיקי תימן,תימן,"דרך הציונות 17
",32.1019083,34.9610472,https://www.waze.com/live-map/directions?navigate=yes&to=ll.32.1019083%2C34.9610472
ראש העין,דברי קהלת,תימן,"אפק 25
",32.09111010000001,34.9456451,https://www.waze.com/live-map/directions?navigate=yes&to=ll.32.09111010000001%2C34.9456451
ראש פינה,שבת אחים יחד, העתיק הספרדי,עדות המזרח,32.970422,35.542659,https://www.waze.com/live-map/directions?navigate=yes&to=ll.32.970422%2C35.542659
ראשון לציון,הר המוריה,ספרד,"יצחק שדה  9
",31.9643414,34.7911328,https://www.waze.com/live-map/directions?navigate=yes&to=ll.31.9643414%2C34.7911328
ראשון לציון,אבניי החושן,ספרד,"ה באיר 2
",31.983064,34.7745242,https://www.waze.com/live-map/directions?navigate=yes&to=ll.31.983064%2C34.7745242
ראשון לציון,אברהם אבינו,עדות המזרח,"נחמה 17
",31.9648176,34.8095315,https://www.waze.com/live-map/directions?navigate=yes&to=ll.31.9648176%2C34.8095315
ראשון לציון,אדמונד ספרא,עדות המזרח,"נווה דקלים 15
",31.9808747,34.7644064,https://www.waze.com/live-map/directions?navigate=yes&to=ll.31.9808747%2C34.7644064
ראשון לציון,אהבת ציון,תימן,"הנוטרים 17
",31.951579,34.826298,https://www.waze.com/live-map/directions?navigate=yes&to=ll.31.951579%2C34.826298
ראשון לציון,אוהל אברהם ורחל,תימן בלדי,"רמבם  24
",31.9647805,34.8120414,https://www.waze.com/live-map/directions?navigate=yes&to=ll.31.9647805%2C34.8120414
ראשון לציון,אוהל רחל ויששכר אברהם,תימן שאמי,"ריינס  8
",31.9523885,34.8064496,https://www.waze.com/live-map/directions?navigate=yes&to=ll.31.9523885%2C34.8064496
ראשון לציון,אור החיים,מרוקו,"ליד סביון 5 בתוך בית ספר מקיףה´
",32.045589,34.87657799999999,https://www.waze.com/live-map/directions?navigate=yes&to=ll.32.045589%2C34.87657799999999
ראשון לציון,אור המיזרח,ספרד,"החבצלת  19
",31.95877849999999,34.82083910000001,https://www.waze.com/live-map/directions?navigate=yes&to=ll.31.95877849999999%2C34.82083910000001
ראשון לציון,אור זרוע,מרוקו,"יעקב הכהן 34
",31.9816428,34.7876648,https://www.waze.com/live-map/directions?navigate=yes&to=ll.31.9816428%2C34.7876648
ראשון לציון,אור חיים,מרוקו,"שלמה המלך 5
",31.9801187,34.7896851,https://www.waze.com/live-map/directions?navigate=yes&to=ll.31.9801187%2C34.7896851
ראשון לציון,ארץ חמדה,עדות המזרח,"צג בנות 29
",31.9680259,34.8094833,https://www.waze.com/live-map/directions?navigate=yes&to=ll.31.9680259%2C34.8094833
רחובות,אהבת ישראל,ספרד,"חפץ חיים 26
",31.8906904,34.8247831,https://www.waze.com/live-map/directions?navigate=yes&to=ll.31.8906904%2C34.8247831
רחובות,אהווה ואחחווה,ספרד,"המעפיל 32
",31.9010392,34.7990769,https://www.waze.com/live-map/directions?navigate=yes&to=ll.31.9010392%2C34.7990769
רחובות,אהל דבורה,ספרד,"ההגנה 64
",31.8940257,34.8263038,https://www.waze.com/live-map/directions?navigate=yes&to=ll.31.8940257%2C34.8263038
רחובות,אהל יצחק,תימן,"יצחק משקה 7
",31.8881581,34.7919864,https://www.waze.com/live-map/directions?navigate=yes&to=ll.31.8881581%2C34.7919864
רחובות,אוהל יוסף,ספרד,"יצחק משקה  8
",31.888096,34.7915998,https://www.waze.com/live-map/directions?navigate=yes&to=ll.31.888096%2C34.7915998
רחובות,אוהל יוסף,תימן,"זכריה מאדר 10
",31.892773,34.811272,https://www.waze.com/live-map/directions?navigate=yes&to=ll.31.892773%2C34.811272
רחובות,אוהל ישראל,עדות המזרח,"מגיני הגליל  47
",31.8906268,34.8290337,https://www.waze.com/live-map/directions?navigate=yes&to=ll.31.8906268%2C34.8290337
רחובות,אוהל שושנה,תימן שאמי,"יעקב מדהלה 19 19
",31.8858641,34.8171615,https://www.waze.com/live-map/directions?navigate=yes&to=ll.31.8858641%2C34.8171615
רכסים,אוהל יעקב - צנעני,תימן בלדי,"הרב קוק 27
",32.74634590000001,35.1006597,https://www.waze.com/live-map/directions?navigate=yes&to=ll.32.74634590000001%2C35.1006597
רכסים,אור דוד,עדות המזרח,"הרקפות 5
",32.7527307,35.101702,https://www.waze.com/live-map/directions?navigate=yes&to=ll.32.7527307%2C35.101702
רכסים,אורח החיים-דרייב,תימן שאמי,"הגפן 25
",32.7487571,35.09900340000001,https://www.waze.com/live-map/directions?navigate=yes&to=ll.32.7487571%2C35.09900340000001
רמלה,אהל יצחק,עדות המזרח,"גיבורי ישראל 13
",31.9275598,34.8588901,https://www.waze.com/live-map/directions?navigate=yes&to=ll.31.9275598%2C34.8588901
רמלה,אוהל אברהם,עדות המזרח,"בן צבי  20
",31.9287484,34.8599161,https://www.waze.com/live-map/directions?navigate=yes&to=ll.31.9287484%2C34.8599161
רמלה,אוהל יוסף,עדות המזרח,"אברהם הלל  7
",31.92975029999999,34.8632573,https://www.waze.com/live-map/directions?navigate=yes&to=ll.31.92975029999999%2C34.8632573
רמלה,בית יוסף עש רבי יוסף קארו זצ''ל זיע''א ,עדות המזרח,"ביאליק 48
",32.0841005,34.8140983,https://www.waze.com/live-map/directions?navigate=yes&to=ll.32.0841005%2C34.8140983
רמלה,ברכת נוריאל,ספרד,"הזית  4
",31.9273706,34.8539478,https://www.waze.com/live-map/directions?navigate=yes&to=ll.31.9273706%2C34.8539478
רמלה,גאולה,ספרד,"הרצל  31
",31.9333736,34.8684791,https://www.waze.com/live-map/directions?navigate=yes&to=ll.31.9333736%2C34.8684791
רמלה,האהלה שרה,מרוקו,"ביאליק  24
",32.0861791,34.8098462,https://www.waze.com/live-map/directions?navigate=yes&to=ll.32.0861791%2C34.8098462
רמלה,היכל הבנים,מרוקו,"האלונים 11
",31.9238967,34.852266,https://www.waze.com/live-map/directions?navigate=yes&to=ll.31.9238967%2C34.852266
רמת אביב,בני עקיבא,ספרד,"אופנהיימר (שכונת נווה אביבים) 5
",32.1196741,34.800141,https://www.waze.com/live-map/directions?navigate=yes&to=ll.32.1196741%2C34.800141
רמת אביב,היכל חיים,עדות המזרח,"אופנהיימר (שכונת נווה אביבים) 5
",32.1196741,34.800141,https://www.waze.com/live-map/directions?navigate=yes&to=ll.32.1196741%2C34.800141
רמת אביב,הרמבם,עדות המזרח,"ברודצקי 21
",32.1084399,34.7980274,https://www.waze.com/live-map/directions?navigate=yes&to=ll.32.1084399%2C34.7980274
רמת אביב,מקור חיים,תימן,"פיינשטיין 83
",32.107476,34.795951,https://www.waze.com/live-map/directions?navigate=yes&to=ll.32.107476%2C34.795951
רמת אביב,משה וואהל,ספרד,"בורלא (שיכון ל´) 25
",32.106443,34.791441,https://www.waze.com/live-map/directions?navigate=yes&to=ll.32.106443%2C34.791441
רמת אביב,משכן אחים,תימן,"ברודצקי 21
",32.1084399,34.7980274,https://www.waze.com/live-map/directions?navigate=yes&to=ll.32.1084399%2C34.7980274
רמת בית שמש,כלל ישראל,ספרד,"נחל רפאים 17
",31.7093697,34.9978714,https://www.waze.com/live-map/directions?navigate=yes&to=ll.31.7093697%2C34.9978714
רמת בית שמש,אור ברמה,עדות המזרח,"נחל מטע  2
",31.7127087,34.9991683,https://www.waze.com/live-map/directions?navigate=yes&to=ll.31.7127087%2C34.9991683
רמת בית שמש,אשל אברהם,מרוקו,"נחל שורק 16
",31.7167387,34.99355360000001,https://www.waze.com/live-map/directions?navigate=yes&to=ll.31.7167387%2C34.99355360000001
רמת בית שמש,נחלי הרמה,עדות המזרח,"נחל קטלב 2
",31.7162199,34.99802469999999,https://www.waze.com/live-map/directions?navigate=yes&to=ll.31.7162199%2C34.99802469999999
רמת בית שמש,נחלי תפילה,ספרד,"נחל רפאים 1
",31.7110389,35.0011008,https://www.waze.com/live-map/directions?navigate=yes&to=ll.31.7110389%2C35.0011008
רמת בית שמש,קהילת אהבה ושמחה - קרליבך,ספרד,"נחל דולב 70
",31.7121241,34.9995094,https://www.waze.com/live-map/directions?navigate=yes&to=ll.31.7121241%2C34.9995094
רמת גן, ישיבת ההסדר רמת גן,ספרד,"אצל 39
",32.06788950000001,34.8365029,https://www.waze.com/live-map/directions?navigate=yes&to=ll.32.06788950000001%2C34.8365029
רמת גן,אבא שלום שבזי,תימן,"אחד העם  10
",32.0477619,34.8162185,https://www.waze.com/live-map/directions?navigate=yes&to=ll.32.0477619%2C34.8162185
רמת גן,אהבה ואחוה,עדות המזרח,"מלכי צדק 9
",32.0497043,34.8177441,https://www.waze.com/live-map/directions?navigate=yes&to=ll.32.0497043%2C34.8177441
רמת גן,אהבת אחים,עדות המזרח,"באר אורה  15
",32.0645788,34.8306813,https://www.waze.com/live-map/directions?navigate=yes&to=ll.32.0645788%2C34.8306813
רמת גן,אהל רחל,עדות המזרח,"תלפיות 19
",32.0873238,34.8095028,https://www.waze.com/live-map/directions?navigate=yes&to=ll.32.0873238%2C34.8095028
רמת גן,אהל שמעון,יוצאי לוב (טריפוליטאים),"הבילויים 44
",32.0600116,34.8257021,https://www.waze.com/live-map/directions?navigate=yes&to=ll.32.0600116%2C34.8257021
רמת גן,אוהל יעקב,עדות המזרח,"אהוד 8
",32.0719708,34.8240916,https://www.waze.com/live-map/directions?navigate=yes&to=ll.32.0719708%2C34.8240916
רמת גן,אור ישרים,עדות המזרח,"האם  14
",32.0591196,34.8316728,https://www.waze.com/live-map/directions?navigate=yes&to=ll.32.0591196%2C34.8316728
רמת גן,אחוה ורעות,עדות המזרח,"הדר 13
",32.0881324,34.8126445,https://www.waze.com/live-map/directions?navigate=yes&to=ll.32.0881324%2C34.8126445
רמת גן,אחים רמבם,תימן,"סיירת דוכיפת 10
",32.0665046,34.8359885,https://www.waze.com/live-map/directions?navigate=yes&to=ll.32.0665046%2C34.8359885
רמת גן,אשל אברהם בביהס בן איש חיל,עדות המזרח,"אצל 14
",32.068424,34.824785,https://www.waze.com/live-map/directions?navigate=yes&to=ll.32.068424%2C34.824785
רמת גן,בית איילון ביטוח,ספרד,"אבא הילל 14
",32.085679,34.8051302,https://www.waze.com/live-map/directions?navigate=yes&to=ll.32.085679%2C34.8051302
רמת השרון,בני עקיבא,עדות המזרח,"יצחק שדה 39
",32.1327494,34.8491804,https://www.waze.com/live-map/directions?navigate=yes&to=ll.32.1327494%2C34.8491804
רמת השרון,מורשת אבות,ספרד,"הרב הרצוג 3
",32.133911,34.8490021,https://www.waze.com/live-map/directions?navigate=yes&to=ll.32.133911%2C34.8490021
רמת השרון,סגולה,תימן,"נהרדעא 0
",32.1343264,34.8600125,https://www.waze.com/live-map/directions?navigate=yes&to=ll.32.1343264%2C34.8600125
רמת השרון,סוכת שאול,עדות המזרח,"רבנו תם 4
",32.1435571,34.8396953,https://www.waze.com/live-map/directions?navigate=yes&to=ll.32.1435571%2C34.8396953
רמת השרון,עונג שבת,ספרד,"השפלה  8
",32.1496142,34.8431987,https://www.waze.com/live-map/directions?navigate=yes&to=ll.32.1496142%2C34.8431987
רמת השרון,פקר,ספרד,"המרי 1
",32.1501078,34.8374868,https://www.waze.com/live-map/directions?navigate=yes&to=ll.32.1501078%2C34.8374868
רמת השרון,שבת אחים,ספרד,"התרבות 8
",32.135458,34.8394409,https://www.waze.com/live-map/directions?navigate=yes&to=ll.32.135458%2C34.8394409
רמת פנקס,דאר סויד,עדות המזרח,"הרמא  42
",32.0337034,34.842114,https://www.waze.com/live-map/directions?navigate=yes&to=ll.32.0337034%2C34.842114
רמת פנקס,עולי לוב עש הרב לביא זיעא,יוצאי לוב (טריפוליטאים),"הרמא  4
",32.0357534,34.8410523,https://www.waze.com/live-map/directions?navigate=yes&to=ll.32.0357534%2C34.8410523
רעננה,בית ארי ,עדות המזרח,"הרצל 4
",32.181438,34.8690625,https://www.waze.com/live-map/directions?navigate=yes&to=ll.32.181438%2C34.8690625
רעננה,אהבת ציון,ספרד,"הפלמח  15
",32.1906523,34.8761033,https://www.waze.com/live-map/directions?navigate=yes&to=ll.32.1906523%2C34.8761033
רעננה,אוהל מועד,ספרד,"רמחל (ביס בסוף רחוב הר סיני) 13
",32.182904,34.8692915,https://www.waze.com/live-map/directions?navigate=yes&to=ll.32.182904%2C34.8692915
רעננה,אוהל מרדכי,עדות המזרח,"אחוזה 80
",32.1796151,34.8795275,https://www.waze.com/live-map/directions?navigate=yes&to=ll.32.1796151%2C34.8795275
רעננה,אוהל שלום,עדות המזרח,"סעדיה גאון 1
",32.19318430000001,34.8747029,https://www.waze.com/live-map/directions?navigate=yes&to=ll.32.19318430000001%2C34.8747029
רעננה,אור ישראל,ספרד,"דוד רזיאל 2
",32.1800712,34.8742861,https://www.waze.com/live-map/directions?navigate=yes&to=ll.32.1800712%2C34.8742861
רעננה,אל-עולם,עדות המזרח,"רבוצקי  56
",32.18257,34.886038,https://www.waze.com/live-map/directions?navigate=yes&to=ll.32.18257%2C34.886038
רעננה,בילו,תימן שאמי,"פרץ 32
",32.193332,34.855138,https://www.waze.com/live-map/directions?navigate=yes&to=ll.32.193332%2C34.855138
רעננה,בית הכנסת הגדול,ספרד,"אחוזה 101
",32.1800417,34.8774863,https://www.waze.com/live-map/directions?navigate=yes&to=ll.32.1800417%2C34.8774863
רעננה,בית יהודה,עדות המזרח,"השוק 5
",32.1794474,34.8775968,https://www.waze.com/live-map/directions?navigate=yes&to=ll.32.1794474%2C34.8775968
רעננה,בית ישראל,עדות המזרח,"השרון 30
",32.1782974,34.8690472,https://www.waze.com/live-map/directions?navigate=yes&to=ll.32.1782974%2C34.8690472
רעננה,בית-אל,עדות המזרח,"קלאוזנר 5
",32.1795979,34.8757585,https://www.waze.com/live-map/directions?navigate=yes&to=ll.32.1795979%2C34.8757585
שדה עוזיה,היכל ה,יוצאי לוב (טריפוליטאים),"אין 71
",31.752427,34.679962,https://www.waze.com/live-map/directions?navigate=yes&to=ll.31.752427%2C34.679962
שדרות,אהבת שמעון,ספרד,"משעול זלמן שניאור 1
",31.5263676,34.6052826,https://www.waze.com/live-map/directions?navigate=yes&to=ll.31.5263676%2C34.6052826
שדרות,בן צבי,מרוקו,"ניצן 1
",31.5230233,34.5914762,https://www.waze.com/live-map/directions?navigate=yes&to=ll.31.5230233%2C34.5914762
שדרות,המרכזי תורה וחיים,מרוקו,"הורד  1
",31.5262147,34.592491,https://www.waze.com/live-map/directions?navigate=yes&to=ll.31.5262147%2C34.592491
שדרות,חמודות דניאל,מרוקו,"בלפור 6
",31.528515,34.6064735,https://www.waze.com/live-map/directions?navigate=yes&to=ll.31.528515%2C34.6064735
שדרות,יד אמיתי( מבורך),ספרד,"האלה 1
",31.5211595,34.5966,https://www.waze.com/live-map/directions?navigate=yes&to=ll.31.5211595%2C34.5966
שוהם,מעלות נתן,ספרד,"רח' המכבים 94
",31.9981903,34.9481848,https://www.waze.com/live-map/directions?navigate=yes&to=ll.31.9981903%2C34.9481848
שוהם,מרכדי ספרדי,עדות המזרח,"החרמון 1
",31.9980385,34.9469371,https://www.waze.com/live-map/directions?navigate=yes&to=ll.31.9980385%2C34.9469371
שוהם,נר ברוך עש ברוך נסים בן יעקב ופולה,ספרד,"הקשת פינת הדקל 2
",32.0039878,34.9498794,https://www.waze.com/live-map/directions?navigate=yes&to=ll.32.0039878%2C34.9498794
שערי תקוה,עטרת מרדכי,ספרד,"ספיר 24
",32.1222661,35.0269791,https://www.waze.com/live-map/directions?navigate=yes&to=ll.32.1222661%2C35.0269791
שתולים,בית יעקב,תימן בלדי,"הראשונים 10
",31.7702248,34.6813524,https://www.waze.com/live-map/directions?navigate=yes&to=ll.31.7702248%2C34.6813524
תל אביב,בית - אהרון,עדות המזרח,"אבוהדרם  3
",32.0852999,34.78176759999999,https://www.waze.com/live-map/directions?navigate=yes&to=ll.32.0852999%2C34.78176759999999
תל אביב,בית אל עולי משהד,ספרד,"יהושע בן נון 63
",32.092303,34.781253,https://www.waze.com/live-map/directions?navigate=yes&to=ll.32.092303%2C34.781253
תל אביב,עץ חיים,תימן בלדי,"טבריה 5
",32.0762541,34.7705442,https://www.waze.com/live-map/directions?navigate=yes&to=ll.32.0762541%2C34.7705442
תל אביב,שבת אחים,תימן בלדי,"כרם התימנים רח´ קלישר  5
",32.0668937,34.7677409,https://www.waze.com/live-map/directions?navigate=yes&to=ll.32.0668937%2C34.7677409
תל אביב,אב שלום,עדות המזרח,"בוגרשוב 63
",32.0754421,34.7730004,https://www.waze.com/live-map/directions?navigate=yes&to=ll.32.0754421%2C34.7730004
תל אביב,אבל אברהם,מרוקו,"רוסלאן 5
",32.0552573,34.7550938,https://www.waze.com/live-map/directions?navigate=yes&to=ll.32.0552573%2C34.7550938
תל אביב,אהל שלום,עדות המזרח,"התיבונים  3
",32.0507004,34.7789734,https://www.waze.com/live-map/directions?navigate=yes&to=ll.32.0507004%2C34.7789734
תל אביב,אוהל אברהם שמואל ישיבת בית יוסף,ספרד,"חרייף אייזק 23
",32.0324772,34.7477718,https://www.waze.com/live-map/directions?navigate=yes&to=ll.32.0324772%2C34.7477718
תל אביב,אוהל לאה,ספרד,"המשלטים 12
",32.0452983,34.7761291,https://www.waze.com/live-map/directions?navigate=yes&to=ll.32.0452983%2C34.7761291
תל אביב,אוהל מועד,עדות המזרח,"שדרות רוטשילד  5
",32.0630949,34.769984,https://www.waze.com/live-map/directions?navigate=yes&to=ll.32.0630949%2C34.769984
תל מונד,בית הכנסת עש רבי נחמן ברסלב,עדות המזרח,"האלון  18
",32.259192,34.920261,https://www.waze.com/live-map/directions?navigate=yes&to=ll.32.259192%2C34.920261
תל מונד,מבשר ציון,ספרד,"הצופית  23
",32.2495665,34.9225661,https://www.waze.com/live-map/directions?navigate=yes&to=ll.32.2495665%2C34.9225661
תל מונד,תפארת ישראל,תימן שאמי,"מצדה 12
",32.2543954,34.9161518,https://www.waze.com/live-map/directions?navigate=yes&to=ll.32.2543954%2C34.9161518
